Lat,Lon,Title,Partner,Partner ohne Markdown,Website,Straße,PLZ,Ort,Land,Partner aus…,Beteiligt in…,Funktion als…,Webadresse,Column 1,lat,lon,LAT,LON,Mehrere Partner
49.48929129999999,8.4673098,,[ABB AG](https://www.abb.de/),ABB AG,https://www.abb.de/,Kallstadter Str. 1,68309,Mannheim,Baden-Württemberg,Wirtschaft,FertiRob,Partner,www.abb.de,,49.48929129999999,8.4673098,,,
51.5646195,7.3106175,,[Advanced Training Technologies GmbH](https://https://sk-att.com/),Advanced Training Technologies GmbH,https://sk-att.com/,Am Förderturm 5 c,44575,Castrop-Rauxel,Nordrhein-Westfalen,Wirtschaft,HyPLANT100,Partner,sk-att.com,,51.5646195,7.3106175,,,
48.2592477,11.4354419,,[Alantum Europe GmbH](https://www.alantum.com/),Alantum Europe GmbH,https://www.alantum.com/,Balanstr. 73 / Geb. 21A,81541,München,Bayern,Wirtschaft,AEL4GW,Partner,www.alantum.com,,48.2592477,11.4354419,,,
47.9651461,7.9573306,,[Albert-Ludwigs-Universität Freiburg](https://www.uni-freiburg.de/),Albert-Ludwigs-Universität Freiburg,https://www.uni-freiburg.de/,Georges-Köhler-Allee 103,79110,Freiburg im Breisgau,Baden-Württemberg,Wissenschaft,Fluorfreie MEA,Partner,www.uni-freiburg.de,,47.9651461,7.9573306,,,
48.7630165,11.4250395,,[AUDI Aktiengesellschaft](https://www.audi.de/),AUDI Aktiengesellschaft,https://www.audi.de/,Auto-Union-Str. 1,85057,Ingolstadt,Bayern,Wirtschaft,PEP.IN,Partner,www.audi.de,,48.7630165,11.4250395,,,
48.1371079,11.5753822,,[AUTOMATION W + R GmbH](https://www.automationwr.de/),AUTOMATION W + R GmbH,https://www.automationwr.de/,Messerschmittstr. 7,80992,München,Bayern,Wirtschaft,FertiRob,Partner,www.automationwr.de,,48.1371079,11.5753822,,,
49.1774768,9.4384654,,[Autoproc GmbH & Co. KG](https://www.autoproc.de/),Autoproc GmbH & Co. KG,https://www.autoproc.de/,Ringstr. 43,74626,Bretzfeld,Baden-Württemberg,Wirtschaft,FertiRob,Partner,www.autoproc.de,,49.1774768,9.4384654,,,
53.0758196,8.8071646,,BIAS - Bremer Institut für angewandte Strahltechnik GmbH,BIAS - Bremer Institut für angewandte Strahltechnik GmbH,https://www.bias.de,Klagenfurter Str. 5,28359,Bremen,Bremen,Wissenschaft,INSTALL-AWE,Partner,www.bias.de,,53.0758196,8.8071646,,,
49.8738515,9.1688433,,[Boll Automation GmbH](https://www.bollautomation.de/),Boll Automation GmbH,https://www.bollautomation.de/,Industriestr. 6,63839,Kleinwallstadt,Bayern,Wirtschaft,FertiRob,Partner,www.bollautomation.de,,49.8738515,9.1688433,,,
54.3227085,10.135555,,[Christian-Albrechts-Universität zu Kiel - Institut für Anorganische Chemie](https://www.uni-kiel.de/),Christian-Albrechts-Universität zu Kiel - Institut für Anorganische Chemie,https://www.uni-kiel.de/,Max-Eyth-Str. 2,24118,Kiel,Schleswig-Holstein,Wissenschaft,PrometH2eus,Partner,www.uni-kiel.de,,54.3227085,10.135555,,,
50.9540035,13.3503293,,[DBI - Gastechnologisches Institut gGmbH Freiberg](https://www.dbi-gti.de/),DBI - Gastechnologisches Institut gGmbH Freiberg,https://www.dbi-gti.de/,Halsbrücker Str. 34,9599,Freiberg,Sachsen,Wissenschaft,TP Elektrolyse,Partner,www.dbi-gti.de,,50.9540035,13.3503293,,,
51.3406321,12.3747329,,[DBI Gas- und Umwelttechnik GmbH](https://www.dbi-gruppe.de/),DBI Gas- und Umwelttechnik GmbH,https://www.dbi-gruppe.de/,Karl-Heine-Str. 109/111,4229,Leipzig,Sachsen,Wirtschaft,HTEL-Module,Partner,www.dbi-gruppe.de,,51.3406321,12.3747329,,,
50.14279620000001,9.0464884,,De Nora Deutschland GmbH,De Nora Deutschland GmbH,https://www.denora.com,Industriestr. 17,63517,Rodenbach,Hessen,Wirtschaft,"INSTALL-AWE, PrometH2eus",Partner,www.denora.com,,50.14279620000001,9.0464884,,,
50.011974,8.7123912,,[DECHEMA Gesellschaft für Chemische Technik und Biotechnologie e.V. und DECHEMA Forschungsinstitut](https://www.dechema.de/),DECHEMA Gesellschaft für Chemische Technik und Biotechnologie e.V. und DECHEMA Forschungsinstitut,https://www.dechema.de/,Theodor-Heuss-Allee 25,60486,Frankfurt am Main,Hessen,Wissenschaft,"TP Elektrolyse, Degrad-EL3, FluCoM, HTEL-Module, ReNaRe",Koordinator und Partner,www.dechema.de,,50.011974,8.7123912,,,
53.0654681,8.1945038,,[Deutsches Zentrum für Luft- und Raumfahrt e. V. - Institut für Vernetzte Energiesysteme](https://www.dlr.de/),Deutsches Zentrum für Luft- und Raumfahrt e. V. - Institut für Vernetzte Energiesysteme,https://www.dlr.de/,Carl-von-Ossietzky-Str. 15,26129,Oldenburg,Niedersachsen,Wissenschaft,SYSTOGEN100,Partner,www.dlr.de,,53.0654681,8.1945038,,,
48.778448499999996,9.1800132,,[Deutsches Zentrum für Luft- und Raumfahrt e. V. - Institut für Technische Thermodynamik](https://www.dlr.de/),Deutsches Zentrum für Luft- und Raumfahrt e. V. - Institut für Technische Thermodynamik,https://www.dlr.de/,Pfaffenwaldring 38-40,70569,Stuttgart,Baden-Württemberg,Wissenschaft,"Degrad-EL3, eModule, HTEL-Stacks, AEL4GW",Partner,www.dlr.de,,48.778448499999996,9.1800132,,,
49.053290600000004,8.5245089,,[EIfER Europäisches Institut für Energieforschung EDF-KIT EWIV](https://www.eifer.kit.edu/),EIfER Europäisches Institut für Energieforschung EDF-KIT EWIV,https://www.eifer.kit.edu/,Emmy-Noether-Str. 11,76131,Karlsruhe,Baden-Württemberg,Wissenschaft,"Degrad-EL3, HTEL-Stacks",Partner,www.eifer.kit.edu,,49.053290600000004,8.5245089,,,
47.8075299,9.6431145,,[EKS InTec GmbH](https://www.eks-intec.de/),EKS InTec GmbH,https://www.eks-intec.de/,Danziger Str. 3,88250,Weingarten,Baden-Württemberg,Wirtschaft,FertiRob,Partner,www.eks-intec.de,,47.8075299,9.6431145,,,
52.616371400000006,13.4855946,,[Enapter GmbH](https://www.enapter.com/),Enapter GmbH,https://www.enapter.com/,Reinhardtstr. 35,10117,Berlin,Berlin,Wirtschaft,HY-Core,Koordinator,www.enapter.com,,52.616371400000006,13.4855946,,,
54.15064350000001,9.08263,,[Entwicklungsagentur Region Heide AöR](https://www.region-heide.de/),Entwicklungsagentur Region Heide AöR,https://www.region-heide.de/,Hamburger Hof 3,25746,Heide,Schleswig-Holstein,Wirtschaft,"HyPLANT100, SYSTOGEN100",Koordinator und Partner,www.region-heide.de,,54.15064350000001,9.08263,,,
49.1708959,8.6415885,,ESSERT GmbH,ESSERT GmbH,https://www.essert.com/,Großer Sand 18,76698,Ubstadt-Weiher,Baden-Württemberg,Wirtschaft,FertiRob,Partner,www.essert.com,,49.1708959,8.6415885,,,
54.1722571,9.1797518,,[Fachhochschule Westküste - Hochschule für Wirtschaft und Technik](https://www.fh-westkueste.de/),Fachhochschule Westküste - Hochschule für Wirtschaft und Technik,https://www.fh-westkueste.de/,Fritz-Thiedemann-Ring 20,25746,Heide,Schleswig-Holstein,Wissenschaft,SYSTOGEN100,Partner,www.fh-westkueste.de,,54.1722571,9.1797518,,,
51.9302951,10.342968,,[Fest GmbH](https://www.fest-group.de/),Fest GmbH,https://www.fest-group.de/,Harzburger Str. 14,38642,Goslar,Niedersachsen,Wirtschaft,HyPLANT100,Partner,www.fest-group.de,,51.9302951,10.342968,,,
50.5542328,9.6770448,,[FFT Produktionssysteme GmbH & Co. KG](https://www.fft.de/),FFT Produktionssysteme GmbH & Co. KG,https://www.fft.de/,Schleyerstr. 1,36041,Fulda,Hessen,Wirtschaft,FertiRob,Partner,www.fft.de,,50.5542328,9.6770448,,,
52.1294289,7.3903454,,[FH Münster](https://www.fh-muenster.de/),FH Münster,https://www.fh-muenster.de/,Stegerwaldstr. 39,48565,Steinfurt,Nordrhein-Westfalen,Wissenschaft,HY-Core,Partner,www.fh-muenster.de,,52.1294289,7.3903454,,,
48.8425793,9.3305129,,[Fichtner IT Consulting GmbH](https://www.fit.fichtner.de/),Fichtner IT Consulting GmbH,https://www.fit.fichtner.de/,Sarweystr. 3,70191,Stuttgart,Baden-Württemberg,Wirtschaft,SYSTOGEN100,Partner,www.fit.fichtner.de,,48.8425793,9.3305129,,,
50.776351,6.083862,,[Forschungsinstitut für Rationalisierung e. V.](https://www.fir.rwth-aachen.de/),Forschungsinstitut für Rationalisierung e. V.,https://www.fir.rwth-aachen.de/,Campus-Boulevard 55,52074,Aachen,Nordrhein-Westfalen,Wissenschaft,SEGIWA,Partner,www.fir.rwth-aachen.de,,50.776351,6.083862,,,
50.922093100000005,6.3611015,,[Forschungszentrum Jülich GmbH - Helmholtz-Institut Erlangen-Nürnberg für Erneuerbare Energien (IEK 11)](https://www.fz-juelich.de/),Forschungszentrum Jülich GmbH - Helmholtz-Institut Erlangen-Nürnberg für Erneuerbare Energien (IEK 11),https://www.fz-juelich.de/,Wilhelm-Johnen-Str.,52428,Jülich,Nordrhein-Westfalen,Wissenschaft,"PEP.IN, SEGIWA, DERIEL, ReNaRe",Partner,www.fz-juelich.de,,50.922093100000005,6.3611015,,,
49.5978157,11.0038064,,[Forschungszentrum Jülich GmbH](https://www.fz-juelich.de/),Forschungszentrum Jülich GmbH,https://www.fz-juelich.de/,Egerlandstr. 3,91058,Erlangen,Bayern,Wissenschaft,"HyThroughGen, StacIE",Koordinator und Partner,www.fz-juelich.de,,49.5978157,11.0038064,,,
50.89591420000001,14.8064417,,[Fraunhofer-Einrichtung für Energieinfrastrukturen und Geothermie IEG](www.ieg.fraunhofer.de),Fraunhofer-Einrichtung für Energieinfrastrukturen und Geothermie IEG,https://www.ieg.fraunhofer.de/,Schwenninger Weg 1,2763,Zittau,Sachsen,Wissenschaft,IntegrH2ate,Partner,www.ieg.fraunhofer.de,,50.89591420000001,14.8064417,,,
51.3154546,9.4924096,,[Fraunhofer-Institut für Energiewirtschaft und Energiesystemtechnik (IEE)](https://www.iee.fraunhofer.de/),Fraunhofer-Institut für Energiewirtschaft und Energiesystemtechnik (IEE),https://www.iee.fraunhofer.de/,Königstor 59,34119,Kassel,Hessen,Wissenschaft,HyLeiT,Koordinator,www.fraunhofer.de,,51.3154546,9.4924096,,,
52.1315889,11.6399609,,[Fraunhofer-Institut für Fabrikbetrieb und -automatisierung (IFF)](https://www.iff.fraunhofer.de/),Fraunhofer-Institut für Fabrikbetrieb und -automatisierung (IFF),https://www.iff.fraunhofer.de/,Sandtorstr. 22,39106,Magdeburg,Sachsen-Anhalt,Wissenschaft,AEL4GW,Partner,www.fraunhofer.de,,52.1315889,11.6399609,,,
51.1462598,13.7986098,,[Fraunhofer-Institut für Fertigungstechnik und Angewandte Materialforschung (IFAM) und Fraunhofer-Institut für Keramische Technologien und Systeme (IKTS)](https://www.ikts.fraunhofer.de/),Fraunhofer-Institut für Fertigungstechnik und Angewandte Materialforschung (IFAM) und Fraunhofer-Institut für Keramische Technologien und Systeme (IKTS),https://www.ikts.fraunhofer.de/,Winterbergstr. 28,1217,Dresden,Sachsen,Wissenschaft,"AEL4GW, HTEL-Stacks",Partner,www.fraunhofer.de,,51.1462598,13.7986098,,,
51.4825041,11.9705452,,[Fraunhofer-Institut für Mikrostruktur von Werkstoffen und Systemen (IMWS)](https://www.imws.fraunhofer.de/),Fraunhofer-Institut für Mikrostruktur von Werkstoffen und Systemen (IMWS),https://www.imws.fraunhofer.de/,Walter-Hülse-Str. 1,6120,Halle (Saale),Sachsen-Anhalt,Wissenschaft,"FRHY, StacIE",Partner,www.fraunhofer.de,,51.4825041,11.9705452,,,
48.8611498,9.1873875,,[Fraunhofer-Institut für Produktionstechnik und Automatisierung (IPA)](https://www.ipa.fraunhofer.de/),Fraunhofer-Institut für Produktionstechnik und Automatisierung (IPA),https://www.ipa.fraunhofer.de/,Nobelstr. 12,70569,Stuttgart,Baden-Württemberg,Wissenschaft,"Degrad-EL3, ReNaRe, FRHY, PEP.IN, IREKA",Partner,www.fraunhofer.de,,48.8611498,9.1873875,,,
50.8771537,6.1620774,,[Fraunhofer-Institut für Produktionstechnologie (IPT)](https://www.ipt.fraunhofer.de/),Fraunhofer-Institut für Produktionstechnologie (IPT),https://www.ipt.fraunhofer.de/,Steinbachstr. 17,52074,Aachen,Nordrhein-Westfalen,Wissenschaft,FRHY,Partner,www.fraunhofer.de,,50.8771537,6.1620774,,,
48.1206565,7.850993,,[Fraunhofer-Institut für Solare Energiesysteme (ISE)](https://www.ise.fraunhofer.de//),Fraunhofer-Institut für Solare Energiesysteme (ISE),https://www.ise.fraunhofer.de/,Heidenhofstr. 2,79110,Freiburg im Breisgau,Baden-Württemberg,Wissenschaft,"HyThroughGen, PEP.IN, StacIE",Partner,www.fraunhofer.de,,48.1206565,7.850993,,,
51.597522399999995,6.6811994,,"[Fraunhofer-Institut für Umwelt-, Sicherheits- und Energietechnik (UMSICHT)](https://www.umsicht.fraunhofer.de/)","Fraunhofer-Institut für Umwelt-, Sicherheits- und Energietechnik (UMSICHT)",https://www.umsicht.fraunhofer.de/,Osterfelder Str. 3,46047,Oberhausen,Nordrhein-Westfalen,Wissenschaft,PEP.IN,Partner,www.fraunhofer.de,,51.597522399999995,6.6811994,,,
50.7602495,13.0283232,,[Fraunhofer-Institut für Werkzeugmaschinen und Umformtechnik (IWU) und Fraunhofer-Institut für Elektronische Nanosysteme (ENAS)](https://www.enas.fraunhofer.de/),Fraunhofer-Institut für Werkzeugmaschinen und Umformtechnik (IWU) und Fraunhofer-Institut für Elektronische Nanosysteme (ENAS),https://www.enas.fraunhofer.de/,Technologie-Campus 3,9112,Chemnitz,Sachsen,Wissenschaft,FRHY,Koordinator und Partner,www.fraunhofer.de,,50.7602495,13.0283232,,,
50.0428901,11.6678287,,Frenzelit Werke GmbH,Frenzelit Werke GmbH,https://www.frenzelit.com,,,,,,,,,,50.0428901,11.6678287,,,
,Frankenhammer,95460.0,Bad Berneck i. Fichtelgebirge,Bayern,Wirtschaft,AEL4GW,Partner,www.frenzelit.com,,,,,,,,Frankenhammer,,,
48.9502631,9.1383314,,[FUMATECH BWT GmbH](https://www.fumatech.com/),FUMATECH BWT GmbH,https://www.fumatech.com/,Carl-Benz-Str. 4,74321,Bietigheim-Bissingen,Baden-Württemberg,Wirtschaft,"StacIE, Fluorfreie MEA, SEGIWA",Partner,www.fumatech.com,,48.9502631,9.1383314,,,
48.424815100000004,10.8778564,,[H-TEC SYSTEMS GmbH](https://www.h-tec.com/),H-TEC SYSTEMS GmbH,https://www.h-tec.com/,Am Mittleren Moos 46,86167,Augsburg,Bayern,Wirtschaft,PEP.IN,Partner,www.h-tec.com,,48.424815100000004,10.8778564,,,
53.7371069,14.0458887,,[HAFF-Dichtungen GmbH](https://www.haff-dichtungen.de/),HAFF-Dichtungen GmbH,https://www.haff-dichtungen.de/,Ziegeleistr. 3,17373,Ueckermünde,Mecklenburg-Vorpommern,Wirtschaft,AEL4GW,Partner,www.haff-dichtungen.de,,53.7371069,14.0458887,,,
47.911828799999995,7.7033313,,[Hahn-Schickard-Gesellschaft für angewandte Forschung e. V.](https://www.hahn-schickard.de/),Hahn-Schickard-Gesellschaft für angewandte Forschung e. V.,https://www.hahn-schickard.de/,Georges-Köhler-Allee 103,79110,Freiburg im Breisgau,Baden-Württemberg,Wissenschaft,"Fluorfreie MEA, SEGIWA",Koordinator,www.hahn-schickard.de,,47.911828799999995,7.7033313,,,
51.1297475,13.8392137,,[Helmholtz-Zentrum Dresden - Rossendorf e. V.](https://www.hzdr.de/),Helmholtz-Zentrum Dresden - Rossendorf e. V.,https://www.hzdr.de/,Bautzner Landstr. 400,1328,Dresden,Sachsen,Wissenschaft,SINEWAVE,Partner,www.hzdr.de,,51.1297475,13.8392137,,,
50.8974968,13.2539626,,[Helmholtz-Zentrum Dresden - Rossendorf e. V.](https://www.hzdr.de/),Helmholtz-Zentrum Dresden - Rossendorf e. V.,https://www.hzdr.de/,Chemnitzer Str. 40,9599,Freiberg,Sachsen,Wissenschaft,ReNaRe,Partner,www.hzdr.de,,50.8974968,13.2539626,,,
53.569230299999994,10.1007321,,[Helmut-Schmidt-Universität](https://www.hsu-hh.de/),Helmut-Schmidt-Universität,https://www.hsu-hh.de/,Holstenhofweg 85,22043,Hamburg,Hamburg,Wissenschaft,eModule,Koordinator,www.hsu-hh.de,,53.569230299999994,10.1007321,,,
50.1799501,8.9230068,,[Heraeus Deutschland GmbH & Co. KG](https://www.heraeus.com/),Heraeus Deutschland GmbH & Co. KG,https://www.heraeus.com/,Heraeusstr. 12-14,63450,Hanau,Hessen,Wirtschaft,"StacIE, ReNaRe, SEGIWA, DERIEL",Partner,www.heraeus.com,,50.1799501,8.9230068,,,
47.659216,9.1750718,,[Hexis GmbH](https://www.hexis.com/),Hexis GmbH,https://www.hexis.com/,Schulthaißstr. 15,78462,Konstanz,Baden-Württemberg,Wirtschaft,ReNaRe,Partner,www.hexis.com,,47.659216,9.1750718,,,
50.7752776,7.1895507,,[Hochschule Bonn-Rhein-Sieg](https://www.h-brs.de/),Hochschule Bonn-Rhein-Sieg,https://www.h-brs.de/,Grantham-Allee 20,53757,Sankt Augustin,Nordrhein-Westfalen,Wissenschaft,HyLeiT,Partner,www.h-brs.de,,50.7752776,7.1895507,,,
51.5017981,6.547923,,[Hochschule Rhein-Waal](https://www.hochschule-rhein-waal.de/),Hochschule Rhein-Waal,https://www.hochschule-rhein-waal.de/,Friedrich-Heinrich-Allee 25,47475,Kamp-Lintfort,Nordrhein-Westfalen,Wissenschaft,StaR,Partner,www.hochschule-rhein-waal.de,,51.5017981,6.547923,,,
53.661550600000005,9.7968682,,Hoedtke GmbH & Co. KG,Hoedtke GmbH & Co. KG,https://hoedtke.de/,Industriestr. 2-6,25421,Pinneberg,Schleswig-Holstein,Wirtschaft,INSTALL-AWE,Partner,hoedtke.de,,53.661550600000005,9.7968682,,,
53.89098320000001,11.4647932,,[Hoeller Electrolyzer GmbH](https://www.hoeller-electrolyzer.com/),Hoeller Electrolyzer GmbH,https://www.hoeller-electrolyzer.com/,Alter Holzhafen 17 b,23966,Wismar,Mecklenburg-Vorpommern,Wirtschaft,HyPLANT100,Partner,www.hoeller-electrolyzer.com,,53.89098320000001,11.4647932,,,
54.2344231,9.0895911,,[HYPION GmbH](https://www.hypion.eu/),HYPION GmbH,https://www.hypion.eu/,Hamburger Hof 3,25746,Heide,Schleswig-Holstein,Wirtschaft,HyPLANT100,Partner,www.hypion.eu,,54.2344231,9.0895911,,,
51.283125399999996,7.7830374,,[IBG Automation GmbH](https://www.goeke-group.com/),IBG Automation GmbH,https://www.goeke-group.com/,Osemundstr. 14-22,58809,Neuenrade,Nordrhein-Westfalen,Wirtschaft,FertiRob,Partner,www.goeke-group.com,,51.283125399999996,7.7830374,,,
53.9119196,10.8023569,,[IBG Technology Hansestadt Lübeck GmbH](https://www.goeke-group.com/),IBG Technology Hansestadt Lübeck GmbH,https://www.goeke-group.com/,An der Dänischburg 25,23569,Lübeck,Schleswig-Holstein,Wirtschaft,HyPLANT100,Partner,www.goeke-group.com,,53.9119196,10.8023569,,,
48.0769935,11.6615136,,[Infineon Technologies AG F OP RD FO](https://www.infineon.com/),Infineon Technologies AG F OP RD FO,https://www.infineon.com/,Am Campeon 1-15,85579,Neubiberg,Bayern,Wirtschaft,HyLeiT,Partner,www.infineon.com,,48.0769935,11.6615136,,,
52.438610499999996,13.2391057,,[inpro Innovationsgesellschaft für fortgeschrittene Produktionssysteme in der Fahrzeugindustrie mbH](https://www.inpro.de/),inpro Innovationsgesellschaft für fortgeschrittene Produktionssysteme in der Fahrzeugindustrie mbH,https://www.inpro.de/,Steinplatz 2,10623,Berlin,Berlin,Wirtschaft,FertiRob,Partner,www.inpro.de,,52.438610499999996,13.2391057,,,
49.830988700000006,8.745123,,[ISRA VISION AG](https://www.isravision.com/),ISRA VISION AG,https://www.isravision.com/,Industriestr. 14,64297,Darmstadt,Hessen,Wirtschaft,FertiRob,Partner,www.isravision.com,,49.830988700000006,8.745123,,,
50.9797836,14.1111221,,[ITM Linde Electrolysis GmbH und Linde GmbH](https://www.linde.com/),ITM Linde Electrolysis GmbH und Linde GmbH,https://www.linde.com/,Bodenbacher Str. 80,1277,Dresden,Sachsen,Wirtschaft,SINEWAVE,Partner,www.linde.com,,50.9797836,14.1111221,,,
50.4696168,8.9171014,,ITM Power Service GmbH,ITM Power Service GmbH,https://itm-power.com/,Am Mühlgraben 6,35410,Hungen,Hessen,Wirtschaft,SINEWAVE,Partner,itm-power.com,,50.4696168,8.9171014,,,
48.4442267,8.5134354,,[J.Schmalz GmbH](https://www.schmalz.com/),J.Schmalz GmbH,https://www.schmalz.com/,Johannes-Schmalz-Str. 1,72293,Glatten,Baden-Württemberg,Wirtschaft,FertiRob,Partner,www.schmalz.com,,48.4442267,8.5134354,,,
48.9397149,8.40427,,[Karlsruher Institut für Technologie (KIT)](https://www.kit.edu/),Karlsruher Institut für Technologie (KIT),https://www.kit.edu/,Adenauerring 20 b,76131,Karlsruhe,Baden-Württemberg,Wissenschaft,"FertiRob, HTEL-Stacks, ReNaRe, StacIE",Partner,www.kit.edu,,48.9397149,8.40427,,,
50.5544687,6.2407954,,[KCS Europe GmbH](https://www.kcs-europe.com/),KCS Europe GmbH,https://www.kcs-europe.com/,Am Handwerkerzentrum 6,52156,Monschau,Nordrhein-Westfalen,Wirtschaft,"AlFaKat, StacIE",Partner,www.kcs-europe.com,,50.5544687,6.2407954,,,
48.00010379999999,11.3508972,,[keep it green gmbh](https://www.keep-it-green.de/),keep it green gmbh,https://www.keep-it-green.de/,Münchner Str. 19 a,82319,Starnberg,Bayern,Wirtschaft,TP Elektrolyse,Partner,www.keep-it-green.de,,48.00010379999999,11.3508972,,,
49.7531092,11.8294634,,[KERAFOL Keramische Folien GmbH & Co. KG](https://www.kerafol.com/),KERAFOL Keramische Folien GmbH & Co. KG,https://www.kerafol.com/,Koppe-Platz 1,92676,Eschenbach i.d.OPf.,Bayern,Wirtschaft,HTEL-Stacks,Partner,www.kerafol.com,,49.7531092,11.8294634,,,
50.8502095,13.7766767,,[Kontron AIS GmbH](https://www.ais-automation.com/),Kontron AIS GmbH,https://www.ais-automation.com/,Otto-Mohr-Str. 6,1279,Dresden,Sachsen,Wirtschaft,HTEL-Module,Partner,www.ais-automation.com,,50.8502095,13.7766767,,,
52.374477899999995,9.7385532,,[Leibniz Universität Hannover](https://www.uni-hannover.de/),Leibniz Universität Hannover,https://www.uni-hannover.de/,Appelstr. 9 a,30167,Hannover,Niedersachsen,Wissenschaft,"HyThroughGen, SEGIWA, DERIEL",Partner,www.uni-hannover.de,,52.374477899999995,9.7385532,,,
54.09244449999999,12.1286127,,[Leibniz-Institut für Katalyse e.V.](https://www.catalysis.de/),Leibniz-Institut für Katalyse e.V.,https://www.catalysis.de/,Albert-Einstein-Str. 29 a,18059,Rostock,Mecklenburg-Vorpommern,Wissenschaft,"IREKA, SEGIWA",Koordinator,www.catalysis.de,,54.09244449999999,12.1286127,,,
49.088332,8.4003114,,[let's dev GmbH & Co. KG](https://www.letsdev.de/),let's dev GmbH & Co. KG,https://www.letsdev.de/,Alter Schlachthof 33,76131,Karlsruhe,Baden-Württemberg,Wirtschaft,FertiRob,Partner,www.letsdev.de,,49.088332,8.4003114,,,
48.055612200000006,11.5217455,,[Linde Aktiengesellschaft - Engineering](https://www.linde.com/),Linde Aktiengesellschaft - Engineering,https://www.linde.com/,Dr.-Carl-von-Linde-Str. 6-14,82049,Pullach i. Isartal,Bayern,Wirtschaft,"IntegrH2ate, SINEWAVE",Koordinator,www.linde.com,,48.055612200000006,11.5217455,,,
49.9207462,9.0755904,,[Main-Automation GmbH](https://www.main-automation.de/),Main-Automation GmbH,https://www.main-automation.de/,Nordring 12,63762,Großostheim,Bayern,Wirtschaft,SEGIWA,Partner,www.main-automation.de,,49.9207462,9.0755904,,,
48.3668041,10.8986971,,[MAN Energy Solutions SE](https://www.man-es.com/),MAN Energy Solutions SE,https://www.man-es.com/,Stadtbachstr. 1,86153,Augsburg,Bayern,Wirtschaft,PEP.IN,Koordinator,www.man-es.com,,48.3668041,10.8986971,,,
51.3783643,6.9228639,,[Max-Planck-Institut für Chemische Energiekonversion](https://www.mpg.de/),Max-Planck-Institut für Chemische Energiekonversion,https://www.mpg.de/,Stiftstr. 34-36,45470,Mülheim an der Ruhr,Nordrhein-Westfalen,Wissenschaft,"DERIEL, PrometH2eus",Partner,www.mpg.de,,51.3783643,6.9228639,,,
51.2501274,13.7625142,,[Max-Planck-Institut für chemische Physik fester Stoffe](https://www.mpg.de/),Max-Planck-Institut für chemische Physik fester Stoffe,https://www.mpg.de/,Nöthnitzer Str. 40,1187,Dresden,Sachsen,Wissenschaft,PrometH2eus,Partner,www.mpg.de,,51.2501274,13.7625142,,,
51.2254018,6.7763137,,[Max-Planck-Institut für Eisenforschung GmbH](https://www.mpie.de/),Max-Planck-Institut für Eisenforschung GmbH,https://www.mpie.de/,Max-Planck-Str. 1,40237,Düsseldorf,Nordrhein-Westfalen,Wissenschaft,PrometH2eus,Partner,www.mpie.de,,51.2254018,6.7763137,,,
51.32658,6.9710401,,[Max-Planck-Institut für Kohlenforschung](https://www.kofo.mpg.de/),Max-Planck-Institut für Kohlenforschung,https://www.kofo.mpg.de/,Kaiser-Wilhelm-Platz 1,45470,Mülheim an der Ruhr,Nordrhein-Westfalen,Wissenschaft,PrometH2eus,Partner,www.kofo.mpg.de,,51.32658,6.9710401,,,
54.36156999999999,10.2862344,,[meteolytix GmbH](https://www.meteolytix.de/),meteolytix GmbH,https://www.meteolytix.de/,Schauenburgerstr. 116,24118,Kiel,Schleswig-Holstein,Wirtschaft,SYSTOGEN100,Partner,www.meteolytix.de,,54.36156999999999,10.2862344,,,
50.791896829224655,13.016466069564247,,[imk Industrial Intelligence GmbH](https://www.imk-automotive.de),imk Industrial Intelligence GmbH,https://www.imk-automotive.de,Amselgrund 30,9128,Chemnitz,Sachsen,Wirtschaft,"HTEL-Module, AEL4GW",Partner,www.imk-automotive.de,,50.791896829224655,13.016466069564247,,,
53.138975300000006,8.2146017,,[OFFIS e. V.](https://www.offis.de/),OFFIS e. V.,https://www.offis.de/,Escherweg 2,26121,Oldenburg,Niedersachsen,Wissenschaft,"DERIEL, SEGIWA",Partner,www.offis.de,,53.138975300000006,8.2146017,,,
49.0195333,12.0974869,,[Ostbayerische Technische Hochschule Regensburg - Fakultät Maschinenbau](https://www.oth-regensburg.de/),Ostbayerische Technische Hochschule Regensburg - Fakultät Maschinenbau,https://www.oth-regensburg.de/,Galgenbergstr. 30,93053,Regensburg,Bayern,Wissenschaft,StaR,Partner,www.oth-regensburg.de,,49.0195333,12.0974869,,,
50.7148979,6.1676665,,[Rheinisch-Westfälische Technische Hochschule Aachen](https://www.rwth-aachen.de/),Rheinisch-Westfälische Technische Hochschule Aachen,https://www.rwth-aachen.de/,Forckenbeckstr. 51,52074,Aachen,Nordrhein-Westfalen,Wissenschaft,"AlFaKat, DERIEL, SEGIWA, StaR, INSTALL-AWE, StacIE, PrometH2eus, ReNaRe",Partner,www.rwth-aachen.de,,50.7148979,6.1676665,,,
51.445525,7.5674652,,[RIF Institut für Forschung und Transfer e. V.](https://www.rif-ev.de/),RIF Institut für Forschung und Transfer e. V.,https://www.rif-ev.de/,Joseph-von-Fraunhofer-Str. 20,44227,Dortmund,Nordrhein-Westfalen,Wissenschaft,FertiRob,Partner,www.rif-ev.de,,51.445525,7.5674652,,,
48.7983947,9.0624386,,[Robert Bosch GmbH BMC/INS](https://www.bosch.com/),Robert Bosch GmbH BMC/INS,https://www.bosch.com/,Robert-Bosch-Platz 1,70839,Gerlingen,Baden-Württemberg,Wirtschaft,FertiRob,Partner,www.bosch.com,,48.7983947,9.0624386,,,
51.4818111,7.2196635,,[Ruhr-Universität Bochum](https://www.ruhr-uni-bochum.de/),Ruhr-Universität Bochum,https://www.ruhr-uni-bochum.de/,Universitätsstr. 150,44801,Bochum,Nordrhein-Westfalen,Wissenschaft,"FertiRob, DERIEL, HyPLANT100",Koordinator und Partner,www.ruhr-uni-bochum.de,,51.4818111,7.2196635,,,
49.5710376,10.8815262,,[Schaeffler Technologies AG & Co. KG](https://www.schaeffler.com/),Schaeffler Technologies AG & Co. KG,https://www.schaeffler.com/,Industriestr. 1-3,91074,Herzogenaurach,Bayern,Wirtschaft,StacIE,Partner,www.schaeffler.com,,49.5710376,10.8815262,,,
49.627700299999994,11.0143385,,[Siemens Energy Global GmbH & Co. KG - Abt. SE NEB TP](https://www.siemens-energy.com/),Siemens Energy Global GmbH & Co. KG - Abt. SE NEB TP,https://www.siemens-energy.com/,Freyeslebenstr. 1,91058,Erlangen,Bayern,Wirtschaft,"SEGIWA, DERIEL",Koordinator,www.siemens-energy.com,,49.627700299999994,11.0143385,,,
51.3138991,9.5575189,,[SMA Solar Technology AG](https://www.sma.de/),SMA Solar Technology AG,https://www.sma.de/,Sonnenallee 1,34266,Niestetal,Hessen,Wirtschaft,HyLeiT,Partner,www.sma.de,,51.3138991,9.5575189,,,
51.016265000000004,13.6530329,,[SunFire GmbH](https://www.sunfire.de/),SunFire GmbH,https://www.sunfire.de/,Gasanstaltstr. 2,1237,Dresden,Sachsen,Wirtschaft,"AEL4GW, HTEL-Module, HTEL-Stacks",Koordinator,www.sunfire.de,,51.016265000000004,13.6530329,,,
54.43753220000001,10.1742064,,Tachycon GmbH,Tachycon GmbH,https://www.tachycon.de,Hofholzallee 63,24109,Kiel,Schleswig-Holstein,Wirtschaft,SYSTOGEN100,Partner,www.tachycon.de,,54.43753220000001,10.1742064,,,
54.1948456,9.0929015,,[TC-Hydraulik GmbH](https://www.tc-hydraulik.de/),TC-Hydraulik GmbH,https://www.tc-hydraulik.de/,Rüsdorfer Str. 8,25746,Heide,Schleswig-Holstein,Wirtschaft,HyPLANT100,Partner,www.tc-hydraulik.de,,54.1948456,9.0929015,,,
50.8684545,6.0950514,,[TEC4FUELS GmbH](https://https://www.tec4fuels.com/),TEC4FUELS GmbH,https://www.tec4fuels.com/,Kaiserstr. 100,52134,Herzogenrath,Nordrhein-Westfalen,Wirtschaft,FluCoM,Koordinator,www.tec4fuels.com,,50.8684545,6.0950514,,,
50.8714928,13.3980846,,[Technische Universität Bergakademie Freiberg](https://www.tu-freiberg.de/),Technische Universität Bergakademie Freiberg,https://www.tu-freiberg.de/,Lampadiusstr. 4,9599,Freiberg,Sachsen,Wissenschaft,"ReNaRe, HTEL-Module",Koordinator und Partner,www.tu-freiberg.de,,50.8714928,13.3980846,,,
52.416492600000005,13.3732228,,[Technische Universität Berlin](https://www.tu.berlin/),Technische Universität Berlin,https://www.tu.berlin/,Straße des 17. Juni 135,10623,Berlin,Berlin,Wissenschaft,"HyThroughGen, PrometH2eus",Partner,www.tu.berlin,,52.416492600000005,13.3732228,,,
52.26465770000001,10.5236066,,[Technische Universität Carolo-Wilhelmina zu Braunschweig](https://www.tu-braunschweig.de/),Technische Universität Carolo-Wilhelmina zu Braunschweig,https://www.tu-braunschweig.de/,Langer Kamp 19 B,38106,Braunschweig,Niedersachsen,Wissenschaft,INSTALL-AWE,Partner,www.tu-braunschweig.de,,52.26465770000001,10.5236066,,,
51.8802577,10.5642634,,[Technische Universität Clausthal](https://www.tu-clausthal.de/),Technische Universität Clausthal,https://www.tu-clausthal.de/,Am Stollen 19A,38640,Goslar,Niedersachsen,Wissenschaft,StaR,Partner,www.tu-clausthal.de,,51.8802577,10.5642634,,,
49.8615899,8.5762043,,[Technische Universität Darmstadt](https://www.tu-darmstadt.de/),Technische Universität Darmstadt,https://www.tu-darmstadt.de/,Alarich-Weiss-Str. 8,64287,Darmstadt,Hessen,Wissenschaft,PrometH2eus,Partner,www.tu-darmstadt.de,,49.8615899,8.5762043,,,
51.0493286,13.7381437,,[Technische Universität Dresden](https://www.tu-dresden.de/),Technische Universität Dresden,https://www.tu-dresden.de/,Helmholtzstr. 18,1307,Dresden,Sachsen,Wissenschaft,"eModule, HyLeiT, SINEWAVE",Partner,www.tu-dresden.de,,51.0493286,13.7381437,,,
53.550341,10.000654,,[Technische Universität Hamburg](https://www.tuhh.de/),Technische Universität Hamburg,https://www.tuhh.de/,Denickestr. 17,21073,Hamburg,Hamburg,Wissenschaft,HyPLANT100,Partner,www.tuhh.de,,53.550341,10.000654,,,
50.686769500000004,10.9142385,,[Technische Universität Ilmenau](https://www.tu-ilmenau.de/),Technische Universität Ilmenau,https://www.tu-ilmenau.de/,Gustav-Kirchhoff-Str. 6,98693,Ilmenau,Thüringen,Wissenschaft,StacIE,Partner,www.tu-ilmenau.de,,50.686769500000004,10.9142385,,,
48.251387799999996,11.6509662,,[Technische Universität München](https://www.tum.de/),Technische Universität München,https://www.tum.de/,Boltzmannstr. 15,85748,Garching b. München,Bayern,Wissenschaft,SINEWAVE,Partner,www.tum.de,,48.251387799999996,11.6509662,,,
48.88198010000001,12.569716,,[Technische Universität München](https://www.tum.de/),Technische Universität München,https://www.tum.de/,Am Essigberg 3,94315,Straubing,Bayern,Wissenschaft,ReNaRe,Partner,www.tum.de,,48.88198010000001,12.569716,,,
51.5142273,7.4652789,,[thyssenkrupp nucera AG & Co. KGaA](https://www.thyssenkrupp-uhde-chlorine-engineers.com/),thyssenkrupp nucera AG & Co. KGaA,https://thyssenkrupp-nucera.com,Voßkuhle 38,44141,Dortmund,Nordrhein-Westfalen,Wirtschaft,"INSTALL-AWE, PrometH2eus",Koordinator und Partner,https://thyssenkrupp-nucera.com,,51.5142273,7.4652789,,,
50.938361,6.959974,,[TÜV Rheinland Industrie Service GmbH](https://www.tuv.com/),TÜV Rheinland Industrie Service GmbH,https://www.tuv.com/,Am Grauen Stein,51105,Köln,Nordrhein-Westfalen,Wirtschaft,TP Elektrolyse,Partner,www.tuv.com,,50.938361,6.959974,,,
50.1335542,8.9168179,,[Umicore AG & Co. KG](https://www.umicore.de/),Umicore AG & Co. KG,https://www.umicore.de/,Rodenbacher Chaussee 4,63457,Hanau,Hessen,Wirtschaft,PrometH2eus,Partner,www.umicore.de,,50.1335542,8.9168179,,,
49.942720200000004,11.5763079,,[Universität Bayreuth](https://www.uni-bayreuth.de/),Universität Bayreuth,https://www.uni-bayreuth.de/,Universitätsstr. 30,95447,Bayreuth,Bayern,Wissenschaft,HTEL-Stacks,Partner,www.uni-bayreuth.de,,49.942720200000004,11.5763079,,,
51.26414329999999,6.5446958,,[Universität Duisburg-Essen](https://www.uni-due.de/),Universität Duisburg-Essen,https://www.uni-due.de/,Carl-Benz-Str. 199,47057,Duisburg,Nordrhein-Westfalen,Wissenschaft,PrometH2eus,Partner,www.uni-due.de,,51.26414329999999,6.5446958,,,
48.857763299999995,10.3523096,,"[VAF Gesellschaft für Verkettungsanlagen, Automationseinrichtungen und Fördertechnik mbH](https://www.vaf-sondermaschinen.de/)","VAF Gesellschaft für Verkettungsanlagen, Automationseinrichtungen und Fördertechnik mbH",https://www.vaf-sondermaschinen.de/,Bergstr. 13,73441,Bopfingen,Baden-Württemberg,Wirtschaft,PEP.IN,Partner,www.vaf-sondermaschinen.de,,48.857763299999995,10.3523096,,,
50.1106444,8.6820917,,[Verband Deutscher Maschinen- und Anlagenbau e.V. (VDMA)](https://www.vdma.org/),Verband Deutscher Maschinen- und Anlagenbau e.V. (VDMA),https://www.vdma.org/,Lyoner Str. 18,60528,Frankfurt am Main,Hessen,Wirtschaft,eModule,Partner,www.vdma.org,,50.1106444,8.6820917,,,
51.6142482,7.5228088,,[WEW GmbH](https://www.wewhydrogen.com/),WEW GmbH,https://www.wewhydrogen.com/,Konrad-Adenauer-Allee 11,44263,Dortmund,Nordrhein-Westfalen,Wirtschaft,StaR,Koordinator,www.wewhydrogen.com,,51.6142482,7.5228088,,,
50.963127899999996,13.6418236,,[XENON Automatisierungstechnik GmbH](https://www.xenon-automation.com/),XENON Automatisierungstechnik GmbH,https://www.xenon-automation.com/,Pforzheimer Str. 16,1189,Dresden,Sachsen,Wirtschaft,"HTEL-Module, HTEL-Stacks",Partner,www.xenon-automation.com,,50.963127899999996,13.6418236,,,
51.3331205,6.5623343,,[Zentrum für Brennstoffzellen-Technik GmbH](https://www.zbt.de/),Zentrum für Brennstoffzellen-Technik GmbH,https://www.zbt.de/,Carl-Benz-Str. 201,47057,Duisburg,Nordrhein-Westfalen,Wissenschaft,"AlFaKat, Degrad-EL3, PEP.IN",Koordinator und Partner,www.zbt.de,,51.3331205,6.5623343,,,
49.872775,8.651177,,[Öko-Institut. Institut für angewandte Ökologie e.V.](https://www.oeko.de/),Öko-Institut. Institut für angewandte Ökologie e.V.,https://www.oeko.de/,Rheinstr. 95,64295,Darmstadt,Hessen,Wissenschaft,ReNaRe,Partner,www.oeko.de,,49.872775,8.651177,,,
51.097173600000005,13.6923622,,[Semodia GmbH](https://www.semodia.com),Semodia GmbH,https://www.semodia.com,Meißner Str. 37,1445,Radebeul,Sachsen,Wirtschaft,eModule,Partner,www.semodia.com,,51.097173600000005,13.6923622,,,
52.1949107,11.5985197,,[Semodia GmbH](https://www.semodia.com),Semodia GmbH,https://www.semodia.com,Meißner Str. 37,1445,Radebeul,Sachsen,Wirtschaft,eModule,Partner,www.semodia.com,,52.1949107,11.5985197,,,
51.3608112,6.4335441,,[Semodia GmbH](https://www.semodia.com),Semodia GmbH,https://www.semodia.com,Meißner Str. 37,1445,Radebeul,Sachsen,Wirtschaft,eModule,Partner,www.semodia.com,,51.3608112,6.4335441,,,
,,,[ADLARES GmbH](www.adlares.com),ADLARES GmbH,https://www.adlares.com/,Oderstr. 65,14513,Teltow,Brandenburg,Wirtschaft,GetH2,Partner,www.adlares.com,,52.382684600000005,13.2765576,52.382684600000005,13.2765576,
,,,[Agentur für Erneuerbare Energien e.V.](www.unendlich-viel-energie.de),Agentur für Erneuerbare Energien e.V.,https://www.unendlich-viel-energie.de/,EUREF-Campus 16,10829,Berlin,Berlin,Wirtschaft,Campfire,Partner,www.unendlich-viel-energie.de,,52.47662879999999,13.3563938,52.47662879999999,13.3563938,
,,,[BASF SE - Public Funding Europe RC/OFP - C006](www.basf.com),BASF SE - Public Funding Europe RC/OFP - C006,https://www.basf.com/,Carl-Bosch-Str. 38 / Tor 7,67063,Ludwigshafen am Rhein,Rheinland-Pfalz,Wirtschaft,Derivate,Partner,www.basf.com,,49.5130209,8.4219463,49.5130209,8.4219463,
,,,[Brandenburgische Technische Universität Cottbus-Senftenberg - Fachgebiet Energiewirtschaft](www.b-tu.de),Brandenburgische Technische Universität Cottbus-Senftenberg - Fachgebiet Energiewirtschaft,https://www.b-tu.de/,Siemens-Halske-Ring 13,3046,Cottbus,Brandenburg,Wissenschaft,"Systemanalyse, Mukran",Partner,www.b-tu.de,,51.6962223,9.403191099999999,51.6962223,9.403191099999999,
,,,[Bundesanstalt für Materialforschung und -prüfung (BAM)](www.bam.de),Bundesanstalt für Materialforschung und -prüfung (BAM),https://www.bam.de/,Unter den Eichen 87,12205,Berlin,Berlin,Wirtschaft,Normung,Partner,www.bam.de,,52.4330402,13.2947951,52.4330402,13.2947951,
,,,[Christian-Albrechts-Universität zu Kiel - Mathematisch-Naturwissenschaftliche Fakultät - Sektion Chemie - Institut für Anorganische Chemie](www.uni-kiel.de),Christian-Albrechts-Universität zu Kiel - Mathematisch-Naturwissenschaftliche Fakultät - Sektion Chemie - Institut für Anorganische Chemie,https://www.uni-kiel.de/,Max-Eyth-Str. 2,24118,Kiel,Schleswig-Holstein,Wissenschaft,Derivate,Partner,www.uni-kiel.de,,54.3412831,10.118482199999999,54.3412831,10.118482199999999,
,,,[Clariant Produkte (Deutschland) GmbH - Katalyselabor Heufeld](www.clariant.de),Clariant Produkte (Deutschland) GmbH - Katalyselabor Heufeld,https://www.clariant.de/,Waldheimer Str. 13,83052,Bruckmühl,Bayern,Wirtschaft,Derivate,Partner,www.clariant.de,,47.8928472,11.9274761,47.8928472,11.9274761,
,,,[cruh21 GmbH](www.aquaventus.org),cruh21 GmbH,https://www.aquaventus.org/,Erste Brunnenstr. 1,20459,Hamburg,Hamburg,Wirtschaft,"Mukran, Helgoland, Kommunikation und Koordination, LNG-Terminals",Partner und Koordinator,www.aquaventus.org,,53.5463115,9.9786558,53.5463115,9.9786558,
,,,[DECHEMA Gesellschaft für Chemische Technik und Biotechnologie e.V.](www.dechema.de),DECHEMA Gesellschaft für Chemische Technik und Biotechnologie e.V.,https://www.dechema.de/,Theodor-Heuss-Allee 25,60486,Frankfurt am Main,Hessen,Wissenschaft,Systemanalyse,Koordinator,www.dechema.de,,50.114309000000006,8.62612,50.114309000000006,8.62612,
,,,[Dr. Ryll Lab GmbH](dr-ryll-lab.de),Dr. Ryll Lab GmbH,https://dr-ryll-lab.de,Ewaldstr. 115a,12524,Berlin,Berlin,Wirtschaft,Derivate,Partner,dr-ryll-lab.de,,52.4123917,13.5416874,52.4123917,13.5416874,
,,,[DVGW CERT GmbH und DVGW Deutscher Verein des Gas- und Wasserfaches e.V. - Technisch-wissenschaftlicher Verein](www.dvgw.de),DVGW CERT GmbH und DVGW Deutscher Verein des Gas- und Wasserfaches e.V. - Technisch-wissenschaftlicher Verein,https://www.dvgw.de/,Josef-Wirmer-Str. 1-3,53123,Bonn,Nordrhein-Westfalen,Wirtschaft,"Normung, LNG-Terminals",Koordinator,www.dvgw.de,,50.7153888,7.0493220999999995,50.7153888,7.0493220999999995,
,,,[DVGW-Forschungsstelle am Engler-Bunte-Institut des Karlsruher Instituts für Technologie (KIT)](www.dvgw-ebi.de),DVGW-Forschungsstelle am Engler-Bunte-Institut des Karlsruher Instituts für Technologie (KIT),https://www.dvgw-ebi.de/,Engler-Bunte-Ring 1-7,76131,Karlsruhe,Baden-Württemberg,Wissenschaft,"Systemanalyse, GetH2, LNG-Terminals",Partner,www.dvgw-ebi.de,,49.0463015,8.4237148,49.0463015,8.4237148,
,,,ELAFLEX HIBY GmbH & Co. KG,ELAFLEX HIBY GmbH & Co. KG,https:///,Schnackenburgallee 121,22525,Hamburg,Hamburg,Wirtschaft,Campfire,Partner,,,53.5866877,9.907005999999999,53.5866877,9.907005999999999,
,,,[Endress+Hauser Process Solutions (Deutschland) GmbH](www.process-solutions.endress.com),Endress+Hauser Process Solutions (Deutschland) GmbH,https://www.process-solutions.endress.com/,Georges-Köhler-Allee 71,79110,Freiburg im Breisgau,Baden-Württemberg,Wirtschaft,Sichere Infrastruktur,Partner,www.process-solutions.endress.com,,48.0202131,7.8157298,48.0202131,7.8157298,
,,,[Energie Südbayern GmbH](www.esb.de),Energie Südbayern GmbH,https://www.esb.de/,Ungsteiner Str. 31,81539,München,Bayern,Wirtschaft,Sichere Infrastruktur,Partner,www.esb.de,,48.110113899999995,11.5911032,48.110113899999995,11.5911032,
,,,[Energy Systems Analysis Associates - ESA2 GmbH](www.reflex-project.eu/legal-2),Energy Systems Analysis Associates - ESA2 GmbH,https://www.reflex-project.eu/legal-2/,Bernhardstr. 92,1187,Dresden,Sachsen,Wirtschaft,Systemanalyse,Partner,www.reflex-project.eu/legal-2,,51.0275223,13.7017131,51.0275223,13.7017131,
,,,[Entwicklungszentrum für Schiffstechnik und Transportsysteme e.V.](www.dst.org),Entwicklungszentrum für Schiffstechnik und Transportsysteme e.V.,https://www.dst.org/,Oststr. 77,47057,Duisburg,Nordrhein-Westfalen,Wissenschaft,Campfire,Partner,www.dst.org,,51.415234600000005,6.7945849,51.415234600000005,6.7945849,
,,,Evonik Operations GmbH - Standort Marl,Evonik Operations GmbH - Standort Marl,,Paul-Baumann-Str. 1,45772,Marl,Nordrhein-Westfalen,Wirtschaft,GetH2,Partner,,,51.68651129999999,7.1193118,51.68651129999999,7.1193118,
,,,[Exentis Tooling GmbH](www.exentis-group.com),Exentis Tooling GmbH,https://www.exentis-group.com/,Preysing-Allee 7a,84149,Velden,Bayern,Wirtschaft,Campfire,Partner,www.exentis-group.com,,48.371761,12.252111099999999,48.371761,12.252111099999999,
,,,[Fährhafen Sassnitz GmbH](www.mukran-port.de),Fährhafen Sassnitz GmbH,https://www.mukran-port.de/,Fährhafen Sassnitz 20,18546,Sassnitz,Mecklenburg-Vorpommern,Wirtschaft,Mukran,Partner,www.mukran-port.de,,54.5268994,13.635369199999998,54.5268994,13.635369199999998,
,,,[FfE Forschungsstelle für Energiewirtschaft e.V. und Forschungsgesellschaft für Energiewirtschaft mbH (FfE GmbH)](www.ffe.de),FfE Forschungsstelle für Energiewirtschaft e.V. und Forschungsgesellschaft für Energiewirtschaft mbH (FfE GmbH),https://www.ffe.de/,Am Blütenanger 71,80995,München,Bayern,Wissenschaft,Systemanalyse,Partner,www.ffe.de,,48.217997,11.512768300000001,48.217997,11.512768300000001,
,,,[Forschungszentrum für Verbrennungsmotoren und Thermodynamik Rostock GmbH](www.fvtr.de),Forschungszentrum für Verbrennungsmotoren und Thermodynamik Rostock GmbH,https://www.fvtr.de/,Joachim-Jungius-Str. 9,18059,Rostock,Mecklenburg-Vorpommern,Wirtschaft,Campfire,Partner,www.fvtr.de,,54.05235940000001,12.1043263,54.05235940000001,12.1043263,
,,,[Fraunhofer-Einrichtung für Energieinfrastrukturen und Geothermie IEG](www.fraunhofer.de),Fraunhofer-Einrichtung für Energieinfrastrukturen und Geothermie IEG,https://www.fraunhofer.de/,Am Hochschulcampus 1 / IEG,44801,Bochum,Nordrhein-Westfalen,Wissenschaft,"Sichere Infrastruktur, LNG-Terminals",Partner,www.fraunhofer.de,,51.4436998,7.2750299,51.4436998,7.2750299,
,,,[Fraunhofer-Einrichtung für Energieinfrastrukturen und Geothermie IEG und Fraunhofer-Institut für System- und Innovationsforschung (ISI)](www.ieg.fraunhofer.de),Fraunhofer-Einrichtung für Energieinfrastrukturen und Geothermie IEG und Fraunhofer-Institut für System- und Innovationsforschung (ISI),https://www.ieg.fraunhofer.de/,Breslauer Str. 48,76139,Karlsruhe,Baden-Württemberg,Wissenschaft,"Systemanalyse, Kommunikation und Koordination",Partner,www.ieg.fraunhofer.de,,49.0279338,8.4441828,49.0279338,8.4441828,
,,,[Fraunhofer-Institut für angewandte Polymerforschung (IAP)](www.iap.fraunhofer.de),Fraunhofer-Institut für angewandte Polymerforschung (IAP),https://www.iap.fraunhofer.de,Geiselbergstraße 69,14476,Potsdam,Brandenburg,Wissenschaft,Mukran,Partner,www.iap.fraunhofer.de,,52.474970400000004,12.979712300000001,52.474970400000004,12.979712300000001,
,,,[Fraunhofer-Institut für Algorithmen und Wissenschaftliches Rechnen (SCAI)](www.fraunhofer.de),Fraunhofer-Institut für Algorithmen und Wissenschaftliches Rechnen (SCAI),https://www.scai.fraunhofer.de/,Schloß Birlinghoven,53757,Sankt Augustin,Nordrhein-Westfalen,Wissenschaft,Systemanalyse,Partner,www.fraunhofer.de,,50.7699533,7.190098299999999,50.7699533,7.190098299999999,
,,,[Fraunhofer-Institut für Energiewirtschaft und Energiesystemtechnik (IEE)](www.fraunhofer.de),Fraunhofer-Institut für Energiewirtschaft und Energiesystemtechnik (IEE),https://www.iee.fraunhofer.de/,Königstor 59,34119,Kassel,Hessen,Wissenschaft,Systemanalyse,Partner,www.fraunhofer.de,,51.318625,9.4648717,51.318625,9.4648717,
,,,[Fraunhofer-Institut für Fabrikbetrieb und -automatisierung (IFF)](www.fraunhofer.de),Fraunhofer-Institut für Fabrikbetrieb und -automatisierung (IFF),https://www.iff.fraunhofer.de/,Sandtorstr. 22,39106,Magdeburg,Sachsen-Anhalt,Wissenschaft,Systemanalyse,Partner,www.fraunhofer.de,,52.1454207,11.6494655,52.1454207,11.6494655,
,,,[Fraunhofer-Institut für Fertigungstechnik und Angewandte Materialforschung (IFAM)](www.fraunhofer.de),Fraunhofer-Institut für Fertigungstechnik und Angewandte Materialforschung (IFAM),https://www.fraunhofer.de/,Wiener Str. 12,28359,Bremen,Bremen,,Helgoland,Partner,www.fraunhofer.de,,53.0992027,8.874162599999998,53.0992027,8.874162599999998,
,,,[Fraunhofer-Institut für Keramische Technologien und Systeme (IKTS)](www.fraunhofer.de),Fraunhofer-Institut für Keramische Technologien und Systeme (IKTS),https://www.ikts.fraunhofer.de/,Maria-Reiche-Str. 2,1109,,,,Systemanalyse,Partner,www.fraunhofer.de,,51.1223249,13.7562109,51.1223249,13.7562109,
,,,[Fraunhofer-Institut für Physikalische Messtechnik (IPM)](www.fraunhofer.de),Fraunhofer-Institut für Physikalische Messtechnik (IPM),https://www.ipm.fraunhofer.de/,Georges-Köhler-Allee 301,79110,Freiburg im Breisgau,Baden-Württemberg,Wissenschaft,"Sichere Infrastruktur, LNG-Terminals",Partner,www.fraunhofer.de,,48.0202131,7.8157298,48.0202131,7.8157298,
,,,[Fraunhofer-Institut für Solare Energiesysteme (ISE)](www.fraunhofer.de),Fraunhofer-Institut für Solare Energiesysteme (ISE),https://www.isi.fraunhofer.de/,Heidenhofstr. 2,79110,Freiburg im Breisgau,Baden-Württemberg,Wissenschaft,"Systemanalyse, Derivate, LNG-Terminals",Partner,www.fraunhofer.de,,48.0202131,7.8157298,48.0202131,7.8157298,
,,,[Fraunhofer-Institut für Werkstoffmechanik (IWM)](www.fraunhofer.de),Fraunhofer-Institut für Werkstoffmechanik (IWM),https://www.www.iwm.fraunhofer.de/,Wöhlerstr. 11,79108,Freiburg im Breisgau,Baden-Württemberg,Wissenschaft,"Sichere Infrastruktur, Normung, LNG-Terminals",Partner,www.fraunhofer.de,,48.040031,7.822786099999999,48.040031,7.822786099999999,
,,,[Gas- und Wärme-Institut Essen e. V.](www.gwi-essen.de),Gas- und Wärme-Institut Essen e. V.,https://www.gwi-essen.de/,Hafenstr. 101,45356,Essen,Nordrhein-Westfalen,Wissenschaft,"Normung, Mukran, LNG-Terminals",Koordinator,www.gwi-essen.de,,51.489626,6.966241900000001,51.489626,6.966241900000001,
,,,[GASCADE Gastransport GmbH](www.gascade.de),GASCADE Gastransport GmbH,https://www.gascade.de/,Kölnische Str. 108-112,34119,Kassel,Hessen,Wirtschaft,Helgoland,Partner,www.gascade.de,,51.318625,9.4648717,51.318625,9.4648717,
,,,"Das Trio aus der Gemeinde Helgoland, der HGH Hafenprojektgesellschaft Helgoland und der Versorgungsbetriebe Helgoland","Gemeinde Helgoland, HGH Hafenprojektgesellschaft Helgoland und Versorgungsbetriebe Helgoland",,Lung Wai 28,27498,Helgoland,Schleswig-Holstein,Wirtschaft,Helgoland,Partner,,,54.1856169,7.9104194,54.1856169,7.9104194,
,,,"[Göhler GmbH & Co. KG, Anlagentechnik](www.goehler.de)","Göhler GmbH & Co. KG, Anlagentechnik",https://www.goehler.de/,Siemensstr. 5,63768,Hösbach,Bayern,Wirtschaft,Campfire,Partner,www.goehler.de,,50.0113447,9.2153485,50.0113447,9.2153485,
,,,[Hamburger Hafen und Logistik Aktiengesellschaft](www.hhla.de),Hamburger Hafen und Logistik Aktiengesellschaft,https://www.hhla.de/,Bei St. Annen 1,20457,Hamburg,Hamburg,Wirtschaft,"Mukran, Helgoland",Partner,www.hhla.de,,53.5335376,9.9806284,53.5335376,9.9806284,
,,,[Helmholtz-Institut Erlangen-Nürnberg](www.hi-ern.de),Helmholtz-Institut Erlangen-Nürnberg,https://www.hi-ern.de,Cauerstr. 1,91058,Erlangen,Bayern,Wissenschaft,LNG-Terminals,Partner,www.hi-ern.de,,49.5600719,11.009804699999998,49.5600719,11.009804699999998,
,,,"[Hochschule Bonn-Rhein-Sieg - Fachbereich Elektrotechnik, Maschinenbau und Technikjournalismus (EMT)](www.h-brs.de)","Hochschule Bonn-Rhein-Sieg - Fachbereich Elektrotechnik, Maschinenbau und Technikjournalismus (EMT)",https://www.h-brs.de/,Grantham-Allee 20,53757,Sankt Augustin,Nordrhein-Westfalen,Wissenschaft,Systemanalyse,Partner,www.h-brs.de,,50.7699533,7.190098299999999,50.7699533,7.190098299999999,
,,,[Hochschule für Technik und Wirtschaft Dresden (FH)](www.htw-dresden.de),Hochschule für Technik und Wirtschaft Dresden (FH),https://www.htw-dresden.de/,Friedrich-List-Platz 1,1069,Dresden,Sachsen,Wissenschaft,Flüssig Wasserstoff,Partner,www.htw-dresden.de,,51.0396432,13.730302800000002,51.0396432,13.730302800000002,
,,,"[Hochschule Wismar University of Applied Sciences Technology, Business and Design - Fakultät für Ingenieurwissenschaften - FB Seefahrt](www.hs-wismar.de)","Hochschule Wismar University of Applied Sciences Technology, Business and Design - Fakultät für Ingenieurwissenschaften - FB Seefahrt",https://www.hs-wismar.de/,Richard-Wagner-Str. 31,18119,Rostock,Mecklenburg-Vorpommern,Wissenschaft,Campfire,Partner,www.hs-wismar.de,,54.171753,12.0715803,54.171753,12.0715803,
,,,[Hüttentechnische Vereinigung der Deutschen Glasindustrie (HVG)](www.hvg-dgg.de),Hüttentechnische Vereinigung der Deutschen Glasindustrie (HVG),https://www.hvg-dgg.de/,Siemensstr. 45,63071,Offenbach am Main,Hessen,Wissenschaft,Systemanalyse,Partner,www.hvg-dgg.de,,50.085406,8.7809937,50.085406,8.7809937,
,,,[HYDROGENIOUS LOHC TECHNOLOGIES GMBH](www.hydrogenious.net),HYDROGENIOUS LOHC TECHNOLOGIES GMBH,https://www.hydrogenious.net/,Weidenweg 13,91058,Erlangen,Bayern,Wirtschaft,"Helgoland, LNG-Terminals",Partner,www.hydrogenious.net,,49.5600719,11.009804699999998,49.5600719,11.009804699999998,
,,,[Inherent Solutions Consult GmbH & Co. KG und ISC Inspection GmbH](www.inherent-solutions.net),Inherent Solutions Consult GmbH & Co. KG und ISC Inspection GmbH,https://www.inherent-solutions.net/,Bemeroder Str. 71,30559,Hannover,Niedersachsen,Wirtschaft,"Normung, Campfire",Partner,www.inherent-solutions.net,,52.363988299999995,9.848507099999999,52.363988299999995,9.848507099999999,
,,,"[Institut für Klimaschutz, Energie und Mobilität - Recht, Ökonomie und Politik e.V.](www.ikem.de)","Institut für Klimaschutz, Energie und Mobilität - Recht, Ökonomie und Politik e.V.",https://www.ikem.de/,Magazinstr. 15 - 16,10179,Berlin,Berlin,Wissenschaft,"Normung, Campfire, LNG-Terminals",Partner,www.ikem.de,,52.512021600000004,13.415877199999999,52.512021600000004,13.415877199999999,
,,,[Institut für Sicherheitstechnik/Schiffssicherheit e.V. (ISV)](www.schiffssicherheit.de),Institut für Sicherheitstechnik/Schiffssicherheit e.V. (ISV),https://www.schiffssicherheit.de/,Friedrich-Barnewitz-Str. 4c,18119,Rostock,Mecklenburg-Vorpommern,Wirtschaft,Campfire,Partner,www.schiffssicherheit.de,,54.171753,12.0715803,54.171753,12.0715803,
,,,[IZES gGmbH](www.izes.de),IZES gGmbH,https://www.izes.de/,Altenkesseler Str. 17 Geb. A1,66115,Saarbrücken,Saarland,Wissenschaft,Systemanalyse,Partner,www.izes.de,,49.2785116,6.962732000000001,49.2785116,6.962732000000001,
,,,Jenbacher GmbH,Jenbacher GmbH,https:///,Carl-Benz-Str. 25,67227,Frankenthal (Pfalz),Rheinland-Pfalz,Wirtschaft,Campfire,Partner,,,49.5335097,8.3466484,49.5335097,8.3466484,
,,,[Karlsruher Institut für Technologie (KIT) - Institut für Kolbenmaschinen](www.kit.edu),Karlsruher Institut für Technologie (KIT) - Institut für Kolbenmaschinen,https://www.kit.edu/,Rintheimer Querallee,76131,Karlsruhe,Baden-Württemberg,Wissenschaft,Campfire,Partner,www.kit.edu,,49.0463015,8.4237148,49.0463015,8.4237148,
,,,[Leibniz-Institut für Festkörper- und Werkstoffforschung Dresden e.V.](www.ifw-dresden.de),Leibniz-Institut für Festkörper- und Werkstoffforschung Dresden e.V.,https://www.ifw-dresden.de/,Helmholtzstr. 20,1069,Dresden,Sachsen,Wissenschaft,"Flüssig Wasserstoff, LNG-Terminals",Partner,www.ifw-dresden.de,,51.0396432,13.730302800000002,51.0396432,13.730302800000002,
,,,[Leibniz-Institut für Plasmaforschung und Technologie e.V.](www.leibniz-inp.de),Leibniz-Institut für Plasmaforschung und Technologie e.V.,https://www.leibniz-inp.de/,Felix-Hausdorff-Str. 2,17489,Greifswald,Mecklenburg-Vorpommern,Wissenschaft,Campfire,Koordinator,www.leibniz-inp.de,,54.0837429,13.3599418,54.0837429,13.3599418,
,,,[Liebherr-Elektronik GmbH](www.liebherr.com),Liebherr-Elektronik GmbH,https://www.liebherr.com/,Peter-Dornier-Str. 11,88131,Lindau (Bodensee),Bayern,Wirtschaft,Campfire,Partner,www.liebherr.com,,47.57286679999999,9.6869409,47.57286679999999,9.6869409,
,,,[Linde GmbH - Gases Divison](www.linde.com),Linde GmbH - Gases Divison,https://www.linde.com/,Seitnerstr. 70,82049,Pullach i. Isartal,Bayern,Wirtschaft,Flüssig Wasserstoff,Partner,www.linde.com,,48.0568775,11.514174800000001,48.0568775,11.514174800000001,
,,,[Max-Planck-Institut für Chemische Energiekonversion](www.mpg.de),Max-Planck-Institut für Chemische Energiekonversion,https://www.mpg.de/,Stiftstr. 34-36,45470,Mülheim an der Ruhr,Nordrhein-Westfalen,Wissenschaft,"Derivate, Kommunikation und Koordination",Koordinator,www.mpg.de,,51.4076263,6.9188515,51.4076263,6.9188515,
,,,[Meter-Q Solutions GmbH](www.meterq.de),Meter-Q Solutions GmbH,https://www.meterq.de/,Robert-Bosch-Str. 10,35510,Butzbach,Hessen,Wirtschaft,GetH2,Partner,www.meterq.de,,50.4261402,8.6539728,50.4261402,8.6539728,
,,,[Nowega GmbH](www.nowega.de),Nowega GmbH,https://www.nowega.de/,Anton-Bruchausen-Str. 4,48147,Münster,Nordrhein-Westfalen,Wissenschaft,GetH2,Partner,www.nowega.de,,51.9757834,7.6339141,51.9757834,7.6339141,
,,,[Open Grid Europe GmbH](www.open-grid-europe.com),Open Grid Europe GmbH,https://www.open-grid-europe.com/,Kallenbergstr. 5,45141,Essen,Nordrhein-Westfalen,Wirtschaft,GetH2,Partner,www.open-grid-europe.com,,51.4776586,7.0352304000000006,51.4776586,7.0352304000000006,
,,,[Papiertechnische Stiftung (PTS)](www.ptspaper.de),Papiertechnische Stiftung (PTS),https://www.ptspaper.de/,Pirnaer Str. 37,1809,Heidenau,Sachsen,Wissenschaft,Systemanalyse,Partner,www.ptspaper.de,,50.9462786,13.847130900000002,50.9462786,13.847130900000002,
,,,[PSL Technik GmbH](www.psl-technik.de),PSL Technik GmbH,https://www.psl-technik.de/,Im Erlengrund 35,46149,Oberhausen,Nordrhein-Westfalen,Wirtschaft,Campfire,Partner,www.psl-technik.de,,51.511998299999995,6.8288231,51.511998299999995,6.8288231,
,,,[Reuther STC GmbH](www.reuther-stc.com),Reuther STC GmbH,https://www.reuther-stc.com/,Fabrikstr. 8,15517,Fürstenwalde/Spree,Brandenburg,Wirtschaft,Mukran,Partner,www.reuther-stc.com,,52.374771200000005,14.0669071,52.374771200000005,14.0669071,
,,,RMA Rheinau GmbH & Co. KG,RMA Rheinau GmbH & Co. KG,https:///,Forsthausstr. 3,77866,Rheinau,Baden-Württemberg,Wirtschaft,Sichere Infrastruktur,Koordinator,,,48.6610036,7.9359671,48.6610036,7.9359671,
,,,[ROSEN Technology and Research Center GmbH](www.roseninspection.net),ROSEN Technology and Research Center GmbH,https://www.roseninspection.net/,Am Seitenkanal 8,49811,Lingen (Ems),Niedersachsen,Wirtschaft,GetH2,Partner,www.roseninspection.net,,52.5110581,7.3990527,52.5110581,7.3990527,
,,,"[RWE Power Aktiengesellschaft - Forschung und Entwicklung - Werkstoffe und Analytik, RWE Generation SE und RWE Renewables GmbH und RWE Supply and Trading GmbH](www.rwe.com)","RWE Power Aktiengesellschaft - Forschung und Entwicklung - Werkstoffe und Analytik, RWE Generation SE und RWE Renewables GmbH und RWE Supply and Trading GmbH",https://www.rwe.com/,RWE Platz 2,45141,Essen,Nordrhein-Westfalen,Wirtschaft,"GetH2, Normung, LNG-Terminals",Koordinator,www.rwe.com,,51.4776586,7.0352304000000006,51.4776586,7.0352304000000006,
,,,[Salzgitter Mannesmann Forschung GmbH](www.salzgitter-mannesmann-forschung.de),Salzgitter Mannesmann Forschung GmbH,https://www.salzgitter-mannesmann-forschung.de/,Ehinger Str. 200,47259,Duisburg,Nordrhein-Westfalen,Wirtschaft,Sichere Infrastruktur,Partner,www.salzgitter-mannesmann-forschung.de,,51.3572448,6.7090193,51.3572448,6.7090193,
,,,[Salzgitter Mannesmann Forschung GmbH](www.salzgitter-mannesmann-forschung.de),Salzgitter Mannesmann Forschung GmbH,https://www.salzgitter-mannesmann-forschung.de/,Eisenhüttenstr. 99,38239,Salzgitter,Niedersachsen,Wirtschaft,Systemanalyse,Partner,www.salzgitter-mannesmann-forschung.de,,52.176795299999995,10.4376454,52.176795299999995,10.4376454,
,,,"[SCHIFFSDIESELTECHNIK KIEL GmbH, Rendsburg](www.sdt-kiel.de)","SCHIFFSDIESELTECHNIK KIEL GmbH, Rendsburg",https://www.sdt-kiel.de/,Kieler Str. 177,24768,Rendsburg,Schleswig-Holstein,Wirtschaft,Campfire,Partner,www.sdt-kiel.de,,54.2970422,9.6627735,54.2970422,9.6627735,
,,,[ScIDre Scientific Instruments Dresden GmbH](www.scidre.de),ScIDre Scientific Instruments Dresden GmbH,https://www.scidre.de/,Gutzkowstr. 30,1069,Dresden,Sachsen,Wirtschaft,Flüssig Wasserstoff,Partner,www.scidre.de,,51.0396432,13.730302800000002,51.0396432,13.730302800000002,
,,,[Sondervermögen Großforschung beim Karlsruher Institut für Technologie (KIT)](www.kit.edu),Sondervermögen Großforschung beim Karlsruher Institut für Technologie (KIT),https://www.kit.edu/,Hermann-von-Helmholtz-Platz 1,76344,Eggenstein-Leopoldshafen,Baden-Württemberg,Wissenschaft,"Normung, Flüssig Wasserstoff",Koordinator,www.kit.edu,,49.095830799999995,8.397572,49.095830799999995,8.397572,
,,,[Technische Universität Berlin](www.tu.berlin),Technische Universität Berlin,https://www.tu.berlin/,Straße des 17. Juni 135,10623,Berlin,Berlin,Wissenschaft,Derivate,Partner,www.tu.berlin,,52.5094427,13.3257361,52.5094427,13.3257361,
,,,"[Technische Universität Dresden - Fakultät Maschinenwesen - Institut für Energietechnik - Bitzer-Stiftungsprofessur für Kälte-, Kryo- und Kompressorentechnik](www.tu-dresden.de)","Technische Universität Dresden - Fakultät Maschinenwesen - Institut für Energietechnik - Bitzer-Stiftungsprofessur für Kälte-, Kryo- und Kompressorentechnik",https://www.tu-dresden.de/,Münchner Platz 3,1187,Dresden,Sachsen,Wissenschaft,Flüssig Wasserstoff,Partner,www.tu-dresden.de,,51.0275223,13.7017131,51.0275223,13.7017131,
,,,[Tewis Projektmanagement GmbH](www.tewis-projektmanagement.de),Tewis Projektmanagement GmbH,https://www.tewis-projektmanagement.de/,Harburger Schloßstr.,21079,Hamburg,Hamburg,Wirtschaft,Helgoland,Koordinator,www.tewis-projektmanagement.de,,53.460257299999995,10.0162978,53.460257299999995,10.0162978,
,,,[Theva Dünnschichttechnik GmbH](www.theva.com),Theva Dünnschichttechnik GmbH,https://www.theva.com/,Rote-Kreuz-Str. 8,85737,Ismaning,Bayern,Wirtschaft,Flüssig Wasserstoff,Partner,www.theva.com,,48.2397809,11.710495300000002,48.2397809,11.710495300000002,
,,,[Thüga Aktiengesellschaft](www.thuega.de),Thüga Aktiengesellschaft,https://www.thuega.de/,Nymphenburger Str. 39,80335,München,Bayern,Wirtschaft,Sichere Infrastruktur,Partner,www.thuega.de,,48.1465686,11.551117699999999,48.1465686,11.551117699999999,
,,,[Uniper Hydrogen GmbH](www.uniper.energy),Uniper Hydrogen GmbH,https://www.uniper.energy,Holzstraße 6,40221,Düsseldorf,Nordrhein-Westfalen,Wirtschaft,LNG-Terminals,Partner,www.uniper.energy,,51.205107899999994,6.7473776,51.205107899999994,6.7473776,
,,,[Universität Kassel - Fachbereich 16 Elektrotechnik / Informatik](www.uni-kassel.de),Universität Kassel - Fachbereich 16 Elektrotechnik / Informatik,https://www.uni-kassel.de/,Wilhelmshöher Allee 71-73,34121,Kassel,Hessen,Wissenschaft,Systemanalyse,Partner,www.uni-kassel.de,,51.3002063,9.4799194,51.3002063,9.4799194,
,,,[Universität Potsdam - Mathematisch-Naturwissenschaftliche Fakultät - Institut für Chemie](www.uni-potsdam.de),Universität Potsdam - Mathematisch-Naturwissenschaftliche Fakultät - Institut für Chemie,https://www.uni-potsdam.de/,"Karl-Liebknecht-Str. 24-25, Haus 25",14476,Potsdam,Brandenburg,Wissenschaft,GetH2,Partner,www.uni-potsdam.de,,52.474970400000004,12.979712300000001,52.474970400000004,12.979712300000001,
,,,[Universität Rostock](www.uni-rostock.de),Universität Rostock,https://www.uni-rostock.de/,Albert-Einstein-Str. 2,18059,Rostock,Mecklenburg-Vorpommern,Wissenschaft,Campfire,Partner,www.uni-rostock.de,,54.05235940000001,12.1043263,54.05235940000001,12.1043263,
,,,[VDEh-Betriebsforschungsinstitut Gesellschaft mit beschränkter Haftung](www.bfi.de),VDEh-Betriebsforschungsinstitut Gesellschaft mit beschränkter Haftung,https://www.bfi.de/,Sohnstr. 69,40237,Düsseldorf,Nordrhein-Westfalen,Wirtschaft,Systemanalyse,Partner,www.bfi.de,,51.2380348,6.8105055,51.2380348,6.8105055,
,,,[Vision Electric Super Conductors GmbH](www.vesc-superbar.de),Vision Electric Super Conductors GmbH,https://www.vesc-superbar.de/,Morlauterer Str. 21,67657,Kaiserslautern,Rheinland-Pfalz,Wirtschaft,Flüssig Wasserstoff,Partner,www.vesc-superbar.de,,49.452727100000004,7.802778699999999,49.452727100000004,7.802778699999999,
,,,[VNG AG](www.vng.de),VNG AG,https://www.vng.de/,Braunstr. 7,4347,Leipzig,Sachsen,Wirtschaft,Systemanalyse,Partner,www.vng.de,,51.3626005,12.434245800000001,51.3626005,12.434245800000001,
,,,[Zentrum für Brennstoffzellen-Technik GmbH](www.zbt.de),Zentrum für Brennstoffzellen-Technik GmbH,https://www.zbt.de/,Carl-Benz-Str. 201,47057,Duisburg,Nordrhein-Westfalen,Wissenschaft,Campfire,Partner,www.zbt.de,,51.415234600000005,6.7945849,51.415234600000005,6.7945849,
,,,[ZwickRoell GmbH & Co. KG](www.zwickroell.com),ZwickRoell GmbH & Co. KG,https://www.zwickroell.com/,August-Nagel-Str. 11,89079,Ulm,Baden-Württemberg,Wirtschaft,Normung,Partner,www.zwickroell.com,,48.344086600000004,9.952829800000002,48.344086600000004,9.952829800000002,
