Lat,Lon,Titel,Partner,Partner ohne Markdown,Website,Straße,PLZ,Ort,Land,Partner aus…,Beteiligt in…,Funktion als…,Webadresse
52.4329955,13.2948039,,[Bundesanstalt für Materialforschung und -prüfung (BAM)](https://www.bam.de/),Bundesanstalt für Materialforschung und -prüfung (BAM),https://www.bam.de/,Unter den Eichen 87,12205,Berlin,Berlin,Wissenschaft,"PtX-Wind, TransferWind",Partner,www.bam.de
53.6922567,10.1080254,,[cruh21 GmbH](https://www.cruh21.com),cruh21 GmbH,https://www.cruh21.com,Erste Brunnenstr. 1,20459,Hamburg,Hamburg,Wirtschaft,TransferWind,Partner,www.cruh21.com
50.1106444,8.6820917,,[DECHEMA Forschungsinstitut und DECHEMA Gesellschaft für Chemische Technik und Biotechnologie e.V.](https://www.dechema-dfi.de/),DECHEMA Forschungsinstitut und DECHEMA Gesellschaft für Chemische Technik und Biotechnologie e.V.,https://www.dechema-dfi.de/,Theodor-Heuss-Allee 25,60486,Frankfurt am Main,Hessen,Wissenschaft,"PtX-Wind, TransferWind",Koordinator und Partner,www.dechema-dfi.de
48.8611498,9.1873875,,[Deutsches Zentrum für Luft- und Raumfahrt e.V.](https://www.dlr.de/),Deutsches Zentrum für Luft- und Raumfahrt e.V.,https://www.dlr.de/,Pfaffenwaldring 38-40,70569,Stuttgart,Baden-Württemberg,Wissenschaft,PtX-Wind,Partner,www.dlr.de
48.9918661,8.5553158,,[DVGW-Forschungsstelle und Karlsruher Institut für Technologie (KIT)](https://www.dvgw.de/),DVGW-Forschungsstelle und Karlsruher Institut für Technologie (KIT),https://www.dvgw.de/,Engler-Bunte-Ring 1,76131,Karlsruhe,Baden-Württemberg,Wissenschaft,"TransferWind, PtX-Wind",Partner,www.dvgw.de
49.088332,8.4003114,,[EnBW Energie Baden-Württemberg AG](https://www.enbw.com/),EnBW Energie Baden-Württemberg AG,https://www.enbw.com/,Durlacher Allee 93,76131,Karlsruhe,Baden-Württemberg,Wirtschaft,PtX-Wind,Partner,www.enbw.com
49.8572968,8.756575,,[EnviroChemie GmbH](https://www.envirochemie.de/),EnviroChemie GmbH,https://www.envirochemie.de/,In den Leppsteinswiesen 9,64380,Roßdorf,Hessen,Wirtschaft,PtX-Wind,Partner,www.envirochemie.de
54.1730981,12.0694669,,[EUCC - Die Küsten Union Deutschland e.V.](https://www.eucc-d.de/),EUCC - Die Küsten Union Deutschland e.V.,https://www.eucc-d.de/,Friedrich-Barnewitz-Str. 3,18119,Rostock,Mecklenburg-Vorpommern,Wirtschaft,TransferWind,Partner,www.eucc-d.de
49.0234631,8.5951975,,[Fraunhofer-Institut für Chemische Technologie (ICT)](https://www.fraunhofer.de/),Fraunhofer-Institut für Chemische Technologie (ICT),https://www.ict.fraunhofer.de/,Joseph-von-Fraunhofer-Str. 7,76327,Pfinztal,Baden-Württemberg,Wissenschaft,OffgridWind,Partner,www.ict.fraunhofer.de
51.4825041,11.9705452,,[Fraunhofer-Institut für Mikrostruktur von Werkstoffen und Systemen (IMWS) ](https://www.imws.fraunhofer.de/),Fraunhofer-Institut für Mikrostruktur von Werkstoffen und Systemen (IMWS),https://www.imws.fraunhofer.de/,Walter-Hülse-Str. 1,06120,Halle (Saale),Sachsen-Anhalt,Wissenschaft,"H₂Wind, TransferWind",Partner,www.imws.fraunhofer.de
47.9960901,7.8494005,,[Fraunhofer-Institut für Werkstoffmechanik (IWM)](https://www.iwm.fraunhofer.de/),Fraunhofer-Institut für Werkstoffmechanik (IWM),https://www.iwm.fraunhofer.de/,Wöhlerstr. 11,79108,Freiburg im Breisgau,Baden-Württemberg,Wissenschaft,H₂Wind,Partner,www.iwm.fraunhofer.de
50.8322608,12.9252977,,[Fraunhofer-Institut für Werkzeugmaschinen und Umformtechnik (IWU)](https://www.iwu.fraunhofer.de/),Fraunhofer-Institut für Werkzeugmaschinen und Umformtechnik (IWU),https://www.iwu.fraunhofer.de/,Reichenhainer Str. 88,09126,Chemnitz,Sachsen,Wissenschaft,H₂Wind,Partner,www.iwu.fraunhofer.de
53.5505392,8.5851945,,[Fraunhofer-Institut für Windenergiesysteme (IWES)](https://www.iwes.fraunhofer.de/),Fraunhofer-Institut für Windenergiesysteme (IWES),https://www.iwes.fraunhofer.de/,Am Luneort 100,27572,Bremerhaven,Bremen,Wissenschaft,"OffgridWind, H₂Wind",Partner,www.iwes.fraunhofer.de
48.9502631,9.1383314,,[FUMATECH BWT GmbH](https://www.fumatech.com/),FUMATECH BWT GmbH,https://www.fumatech.com/,Carl-Benz-Str. 4,74321,Bietigheim-Bissingen,Baden-Württemberg,Wirtschaft,H₂Wind,Partner,www.fumatech.com
53.4397121,10.3682538,,[Helmholtz-Zentrum hereon GmbH](https://www.hereon.de/),Helmholtz-Zentrum hereon GmbH,https://www.hereon.de/,Max-Planck-Str. 1,21502,Geesthacht,Schleswig-Holstein,Wissenschaft,"PtX-Wind, TransferWind",Partner,www.hereon.de
54.0520394,12.052726,,"[Hochschule Wismar University of Applied Sciences Technology, Business and Design](https://www.hs-wismar.de/)","Hochschule Wismar University of Applied Sciences Technology, Business and Design",https://www.hs-wismar.de/,Richard-Wagner-Str. 31,18119,Rostock,Mecklenburg-Vorpommern,Wissenschaft,TransferWind,Partner,www.hs-wismar.de
48.9397149,8.40427,,[INERATEC GmbH](https://www.ineratec.de/),INERATEC GmbH,https://www.ineratec.de/,Siemensallee 84,76187,Karlsruhe,Baden-Württemberg,Wirtschaft,PtX-Wind,Partner,www.ineratec.de
52.3744779,9.7385532,,[Leibniz Universität Hannover](https://www.uni-hannover.de/),Leibniz Universität Hannover,https://www.uni-hannover.de/,Appelstr. 9 a,30167,Hannover,Niedersachsen,Wissenschaft,H₂Wind,Partner,www.uni-hannover.de
52.1315889,11.6399609,,[Max-Planck-Institut für Dynamik komplexer technischer Systeme](https://www.mpg.de/),Max-Planck-Institut für Dynamik komplexer technischer Systeme,https://www.mpg.de/,Sandtorstr. 1,39106,Magdeburg,Sachsen-Anhalt,Wissenschaft,PtX-Wind,Partner,www.mpg.de
53.5805386,9.7559175,,[Northland Power Europe GmbH](https://www.northlandpower.com/),Northland Power Europe GmbH,https://www.northlandpower.com/,Ludwig-Erhard-Str. 22,20459,Hamburg,Hamburg,Wirtschaft,PtX-Wind,Partner,www.northlandpower.com
51.4582235,7.0158171,,[RWE Renewables GmbH](https://www.rwe.com/),RWE Renewables GmbH,https://www.rwe.com/,RWE Platz 4,45141,Essen,Nordrhein-Westfahlen,Wirtschaft,OffgridWind,Partner,www.rwe.com
51.434999,6.759562,,[Salzgitter Mannesmann Forschung GmbH](https://www.salzgitter-mannesmann-forschung.de/),Salzgitter Mannesmann Forschung GmbH,https://www.salzgitter-mannesmann-forschung.de/,Ehinger Str. 200,47259,Duisburg,Nordrhein-Westfahlen,Wirtschaft,H₂Wind,Partner,www.salzgitter-mannesmann-forschung.de
49.5978157,11.0038064,,[Siemens Energy Global GmbH & Co. KG - SE NEB TP](https://www.siemens-energy.com/),Siemens Energy Global GmbH & Co. KG - SE NEB TP,https://www.siemens-energy.com/,Freyeslebenstr. 1,91058,Erlangen,Bayern,Wirtschaft,"H₂Wind, TransferWind",Koordinator und Partner,www.siemens-energy.com
53.550341,10.000654,,[Siemens Gamesa Renewable Energy GmbH & Co. KG](https://www.siemens.com/),Siemens Gamesa Renewable Energy GmbH & Co. KG,https://www.siemens.com/,Beim Strohhause 17 - 31,20097,Hamburg,Hamburg,Wirtschaft,"OffgridWind, PtX-Wind",Koordinator und Partner,www.siemens.com
49.1640231,8.4930463,,[Sondervermögen Großforschung beim Karlsruher Institut für Technologie (KIT)](https://www.kit.edu/),Sondervermögen Großforschung beim Karlsruher Institut für Technologie (KIT),https://www.kit.edu/,Hermann-von-Helmholtz-Platz 1,76344,Eggenstein-Leopoldshafen,Baden-Württemberg,Wissenschaft,"PtX-Wind, TransferWind",Koordinator und Partner,www.kit.edu
53.395777,8.1372149,,[Stiftung der deutschen Wirtschaft für die Nutzung und Erforschung der Windenergie auf See (Offshore-Stiftung)](https://www.offshore-stiftung.de/),Stiftung der deutschen Wirtschaft für die Nutzung und Erforschung der Windenergie auf See (Offshore-Stiftung),https://www.offshore-stiftung.de/,Oldenburger Str. 65,26316,Varel,Niedersachsen,Wissenschaft,TransferWind,Partner,www.offshore-stiftung.de
52.5170365,13.3888599,,[Technische Universität Berlin](https://www.tu.berlin/),Technische Universität Berlin,https://www.tu.berlin/,Salzufer 17-19,10587,Berlin,Berlin,Wissenschaft,"PtX-Wind, TransferWind",Partner,www.tu.berlin
51.5142273,7.4652789,,[thyssenkrupp Industrial Solutions AG](https://www.thyssenkrupp-industrial-solutions.com/),thyssenkrupp Industrial Solutions AG,https://www.thyssenkrupp-industrial-solutions.com/,Friedrich-Uhde-Str. 15,44141,Dortmund,Nordrhein-Westfahlen,Wirtschaft,PtX-Wind,Partner,www.thyssenkrupp-industrial-solutions.com
48.7784485,9.1800132,,[Universität Stuttgart](https://www.uni-stuttgart.de/),Universität Stuttgart,https://www.uni-stuttgart.de/,Heßbrühlstr. 49 a,70565,Stuttgart,Baden-Württemberg,Wissenschaft,"PtX-Wind,TransferWind",Partner,www.uni-stuttgart.de
53.5138867,8.5973287,,[WindMW Service GmbH (assoziiert)](https://www.windmw.de/),WindMW Service GmbH (assoziiert),https://www.windmw.de/,Schleusenstr. 12,27568,Bremerhaven,Bremen,Wirtschaft,PtX-Wind,Partner,www.windmw.de