Lat,Lon,Title,Partner,Partner ohne Markdown,Website,Straße,PLZ,Ort,Land,Partner aus…,Beteiligt in…,Funktion als…,Webadresse,Column 1
49.4892913,8.4673098,,[ABB AG](https://www.abb.de/),ABB AG,https://www.abb.de/,Kallstadter Str. 1,68309,Mannheim,Baden-Württemberg,Wirtschaft,FertiRob,Partner,www.abb.de,
51.5646195,7.3106175,,[Advanced Training Technologies GmbH](https://https://sk-att.com/),Advanced Training Technologies GmbH,https://sk-att.com/,Am Förderturm 5 c,44575,Castrop-Rauxel,Nordrhein-Westfalen,Wirtschaft,HyPLANT100,Partner,sk-att.com,
48.2592477,11.4354419,,[Alantum Europe GmbH](https://www.alantum.com/),Alantum Europe GmbH,https://www.alantum.com/,Balanstr. 73 / Geb. 21A,81541,München,Bayern,Wirtschaft,AEL4GW,Partner,www.alantum.com,
47.9651461,7.9573306,,[Albert-Ludwigs-Universität Freiburg](https://www.uni-freiburg.de/),Albert-Ludwigs-Universität Freiburg,https://www.uni-freiburg.de/,Georges-Köhler-Allee 103,79110,Freiburg im Breisgau,Baden-Württemberg,Wissenschaft,Fluorfreie MEA,Partner,www.uni-freiburg.de,
48.7630165,11.4250395,,[AUDI Aktiengesellschaft](https://www.audi.de/),AUDI Aktiengesellschaft,https://www.audi.de/,Auto-Union-Str. 1,85057,Ingolstadt,Bayern,Wirtschaft,PEP.IN,Partner,www.audi.de,
48.1371079,11.5753822,,[AUTOMATION W + R GmbH](https://www.automationwr.de/),AUTOMATION W + R GmbH,https://www.automationwr.de/,Messerschmittstr. 7,80992,München,Bayern,Wirtschaft,FertiRob,Partner,www.automationwr.de,
49.1774768,9.4384654,,[Autoproc GmbH & Co. KG](https://www.autoproc.de/),Autoproc GmbH & Co. KG,https://www.autoproc.de/,Ringstr. 43,74626,Bretzfeld,Baden-Württemberg,Wirtschaft,FertiRob,Partner,www.autoproc.de,
53.0758196,8.8071646,,BIAS - Bremer Institut für angewandte Strahltechnik GmbH,BIAS - Bremer Institut für angewandte Strahltechnik GmbH,https://www.bias.de,Klagenfurter Str. 5,28359,Bremen,Bremen,Wissenschaft,INSTALL-AWE,Partner,www.bias.de,
49.8738515,9.1688433,,[Boll Automation GmbH](https://www.bollautomation.de/),Boll Automation GmbH,https://www.bollautomation.de/,Industriestr. 6,63839,Kleinwallstadt,Bayern,Wirtschaft,FertiRob,Partner,www.bollautomation.de,
54.3227085,10.135555,,[Christian-Albrechts-Universität zu Kiel - Institut für Anorganische Chemie](https://www.uni-kiel.de/),Christian-Albrechts-Universität zu Kiel - Institut für Anorganische Chemie,https://www.uni-kiel.de/,Max-Eyth-Str. 2,24118,Kiel,Schleswig-Holstein,Wissenschaft,PrometH2eus,Partner,www.uni-kiel.de,
50.9540035,13.3503293,,[DBI - Gastechnologisches Institut gGmbH Freiberg](https://www.dbi-gti.de/),DBI - Gastechnologisches Institut gGmbH Freiberg,https://www.dbi-gti.de/,Halsbrücker Str. 34,09599,Freiberg,Sachsen,Wissenschaft,TP Elektrolyse,Partner,www.dbi-gti.de,
51.3406321,12.3747329,,[DBI Gas- und Umwelttechnik GmbH](https://www.dbi-gruppe.de/),DBI Gas- und Umwelttechnik GmbH,https://www.dbi-gruppe.de/,Karl-Heine-Str. 109/111,04229,Leipzig,Sachsen,Wirtschaft,HTEL-Module,Partner,www.dbi-gruppe.de,
50.1427962,9.0464884,,De Nora Deutschland GmbH,De Nora Deutschland GmbH,https://www.denora.com,Industriestr. 17,63517,Rodenbach,Hessen,Wirtschaft,"INSTALL-AWE, PrometH2eus",Partner,www.denora.com,
50.011974,8.7123912,,[DECHEMA Gesellschaft für Chemische Technik und Biotechnologie e.V. und DECHEMA Forschungsinstitut](https://www.dechema.de/),DECHEMA Gesellschaft für Chemische Technik und Biotechnologie e.V. und DECHEMA Forschungsinstitut,https://www.dechema.de/,Theodor-Heuss-Allee 25,60486,Frankfurt am Main,Hessen,Wissenschaft,"TP Elektrolyse, Degrad-EL3, FluCoM, HTEL-Module, ReNaRe",Koordinator und Partner,www.dechema.de,
53.0654681,8.1945038,,[Deutsches Zentrum für Luft- und Raumfahrt e. V. - Institut für Vernetzte Energiesysteme](https://www.dlr.de/),Deutsches Zentrum für Luft- und Raumfahrt e. V. - Institut für Vernetzte Energiesysteme,https://www.dlr.de/,Carl-von-Ossietzky-Str. 15,26129,Oldenburg,Niedersachsen,Wissenschaft,SYSTOGEN100,Partner,www.dlr.de,
48.7784485,9.1800132,,[Deutsches Zentrum für Luft- und Raumfahrt e. V. - Institut für Technische Thermodynamik](https://www.dlr.de/),Deutsches Zentrum für Luft- und Raumfahrt e. V. - Institut für Technische Thermodynamik,https://www.dlr.de/,Pfaffenwaldring 38-40,70569,Stuttgart,Baden-Württemberg,Wissenschaft,"Degrad-EL3, eModule, HTEL-Stacks, AEL4GW",Partner,www.dlr.de,
49.0532906,8.5245089,,[EIfER Europäisches Institut für Energieforschung EDF-KIT EWIV](https://www.eifer.kit.edu/),EIfER Europäisches Institut für Energieforschung EDF-KIT EWIV,https://www.eifer.kit.edu/,Emmy-Noether-Str. 11,76131,Karlsruhe,Baden-Württemberg,Wissenschaft,"Degrad-EL3, HTEL-Stacks",Partner,www.eifer.kit.edu,
47.8075299,9.6431145,,[EKS InTec GmbH](https://www.eks-intec.de/),EKS InTec GmbH,https://www.eks-intec.de/,Danziger Str. 3,88250,Weingarten,Baden-Württemberg,Wirtschaft,FertiRob,Partner,www.eks-intec.de,
52.6163714,13.4855946,,[Enapter GmbH](https://www.enapter.com/),Enapter GmbH,https://www.enapter.com/,Reinhardtstr. 35,10117,Berlin,Berlin,Wirtschaft,HY-Core,Koordinator,www.enapter.com,
54.1506435,9.08263,,[Entwicklungsagentur Region Heide AöR](https://www.region-heide.de/),Entwicklungsagentur Region Heide AöR,https://www.region-heide.de/,Hamburger Hof 3,25746,Heide,Schleswig-Holstein,Wirtschaft,"HyPLANT100, SYSTOGEN100",Koordinator und Partner,www.region-heide.de,
49.1708959,8.6415885,,ESSERT GmbH,ESSERT GmbH,https://www.essert.com/,Großer Sand 18,76698,Ubstadt-Weiher,Baden-Württemberg,Wirtschaft,FertiRob,Partner,www.essert.com,
54.1722571,9.1797518,,[Fachhochschule Westküste - Hochschule für Wirtschaft und Technik](https://www.fh-westkueste.de/),Fachhochschule Westküste - Hochschule für Wirtschaft und Technik,https://www.fh-westkueste.de/,Fritz-Thiedemann-Ring 20,25746,Heide,Schleswig-Holstein,Wissenschaft,SYSTOGEN100,Partner,www.fh-westkueste.de,
51.9302951,10.342968,,[Fest GmbH](https://www.fest-group.de/),Fest GmbH,https://www.fest-group.de/,Harzburger Str. 14,38642,Goslar,Niedersachsen,Wirtschaft,HyPLANT100,Partner,www.fest-group.de,
50.5542328,9.6770448,,[FFT Produktionssysteme GmbH & Co. KG](https://www.fft.de/),FFT Produktionssysteme GmbH & Co. KG,https://www.fft.de/,Schleyerstr. 1,36041,Fulda,Hessen,Wirtschaft,FertiRob,Partner,www.fft.de,
52.1294289,7.3903454,,[FH Münster](https://www.fh-muenster.de/),FH Münster,https://www.fh-muenster.de/,Stegerwaldstr. 39,48565,Steinfurt,Nordrhein-Westfalen,Wissenschaft,HY-Core,Partner,www.fh-muenster.de,
48.8425793,9.3305129,,[Fichtner IT Consulting GmbH](https://www.fit.fichtner.de/),Fichtner IT Consulting GmbH,https://www.fit.fichtner.de/,Sarweystr. 3,70191,Stuttgart,Baden-Württemberg,Wirtschaft,SYSTOGEN100,Partner,www.fit.fichtner.de,
50.776351,6.083862,,[Forschungsinstitut für Rationalisierung e. V.](https://www.fir.rwth-aachen.de/),Forschungsinstitut für Rationalisierung e. V.,https://www.fir.rwth-aachen.de/,Campus-Boulevard 55,52074,Aachen,Nordrhein-Westfalen,Wissenschaft,SEGIWA,Partner,www.fir.rwth-aachen.de,
50.9220931,6.3611015,,[Forschungszentrum Jülich GmbH - Helmholtz-Institut Erlangen-Nürnberg für Erneuerbare Energien (IEK 11)](https://www.fz-juelich.de/),Forschungszentrum Jülich GmbH - Helmholtz-Institut Erlangen-Nürnberg für Erneuerbare Energien (IEK 11),https://www.fz-juelich.de/,Wilhelm-Johnen-Str.,52428,Jülich,Nordrhein-Westfalen,Wissenschaft,"PEP.IN, SEGIWA, DERIEL, ReNaRe",Partner,www.fz-juelich.de,
49.5978157,11.0038064,,[Forschungszentrum Jülich GmbH](https://www.fz-juelich.de/),Forschungszentrum Jülich GmbH,https://www.fz-juelich.de/,Egerlandstr. 3,91058,Erlangen,Bayern,Wissenschaft,"HyThroughGen, StacIE",Koordinator und Partner,www.fz-juelich.de,
50.8959142,14.8064417,,[Fraunhofer-Einrichtung für Energieinfrastrukturen und Geothermie IEG](www.ieg.fraunhofer.de),Fraunhofer-Einrichtung für Energieinfrastrukturen und Geothermie IEG,https://www.ieg.fraunhofer.de/,Schwenninger Weg 1,02763,Zittau,Sachsen,Wissenschaft,IntegrH2ate,Partner,www.ieg.fraunhofer.de,
51.3154546,9.4924096,,[Fraunhofer-Institut für Energiewirtschaft und Energiesystemtechnik (IEE)](https://www.iee.fraunhofer.de/),Fraunhofer-Institut für Energiewirtschaft und Energiesystemtechnik (IEE),https://www.iee.fraunhofer.de/,Königstor 59,34119,Kassel,Hessen,Wissenschaft,HyLeiT,Koordinator,www.fraunhofer.de,
52.1315889,11.6399609,,[Fraunhofer-Institut für Fabrikbetrieb und -automatisierung (IFF)](https://www.iff.fraunhofer.de/),Fraunhofer-Institut für Fabrikbetrieb und -automatisierung (IFF),https://www.iff.fraunhofer.de/,Sandtorstr. 22,39106,Magdeburg,Sachsen-Anhalt,Wissenschaft,AEL4GW,Partner,www.fraunhofer.de,
51.1462598,13.7986098,,[Fraunhofer-Institut für Fertigungstechnik und Angewandte Materialforschung (IFAM) und Fraunhofer-Institut für Keramische Technologien und Systeme (IKTS)](https://www.ikts.fraunhofer.de/),Fraunhofer-Institut für Fertigungstechnik und Angewandte Materialforschung (IFAM) und Fraunhofer-Institut für Keramische Technologien und Systeme (IKTS),https://www.ikts.fraunhofer.de/,Winterbergstr. 28,01217,Dresden,Sachsen,Wissenschaft,"AEL4GW, HTEL-Stacks",Partner,www.fraunhofer.de,
51.4825041,11.9705452,,[Fraunhofer-Institut für Mikrostruktur von Werkstoffen und Systemen (IMWS)](https://www.imws.fraunhofer.de/),Fraunhofer-Institut für Mikrostruktur von Werkstoffen und Systemen (IMWS),https://www.imws.fraunhofer.de/,Walter-Hülse-Str. 1,06120,Halle (Saale),Sachsen-Anhalt,Wissenschaft,"FRHY, StacIE",Partner,www.fraunhofer.de,
48.8611498,9.1873875,,[Fraunhofer-Institut für Produktionstechnik und Automatisierung (IPA)](https://www.ipa.fraunhofer.de/),Fraunhofer-Institut für Produktionstechnik und Automatisierung (IPA),https://www.ipa.fraunhofer.de/,Nobelstr. 12,70569,Stuttgart,Baden-Württemberg,Wissenschaft,"Degrad-EL3, ReNaRe, FRHY, PEP.IN, IREKA",Partner,www.fraunhofer.de,
50.8771537,6.1620774,,[Fraunhofer-Institut für Produktionstechnologie (IPT)](https://www.ipt.fraunhofer.de/),Fraunhofer-Institut für Produktionstechnologie (IPT),https://www.ipt.fraunhofer.de/,Steinbachstr. 17,52074,Aachen,Nordrhein-Westfalen,Wissenschaft,FRHY,Partner,www.fraunhofer.de,
48.1206565,7.850993,,[Fraunhofer-Institut für Solare Energiesysteme (ISE)](https://www.ise.fraunhofer.de//),Fraunhofer-Institut für Solare Energiesysteme (ISE),https://www.ise.fraunhofer.de/,Heidenhofstr. 2,79110,Freiburg im Breisgau,Baden-Württemberg,Wissenschaft,"HyThroughGen, PEP.IN, StacIE",Partner,www.fraunhofer.de,
51.5975224,6.6811994,,"[Fraunhofer-Institut für Umwelt-, Sicherheits- und Energietechnik (UMSICHT)](https://www.umsicht.fraunhofer.de/)","Fraunhofer-Institut für Umwelt-, Sicherheits- und Energietechnik (UMSICHT)",https://www.umsicht.fraunhofer.de/,Osterfelder Str. 3,46047,Oberhausen,Nordrhein-Westfalen,Wissenschaft,PEP.IN,Partner,www.fraunhofer.de,
50.7602495,13.0283232,,[Fraunhofer-Institut für Werkzeugmaschinen und Umformtechnik (IWU) und Fraunhofer-Institut für Elektronische Nanosysteme (ENAS)](https://www.enas.fraunhofer.de/),Fraunhofer-Institut für Werkzeugmaschinen und Umformtechnik (IWU) und Fraunhofer-Institut für Elektronische Nanosysteme (ENAS),https://www.enas.fraunhofer.de/,Technologie-Campus 3,09112,Chemnitz,Sachsen,Wissenschaft,FRHY,Koordinator und Partner,www.fraunhofer.de,
50.0428901,11.6678287,,Frenzelit Werke GmbH,Frenzelit Werke GmbH,"https://www.frenzelit.com
",Frankenhammer,95460,Bad Berneck i. Fichtelgebirge,Bayern,Wirtschaft,AEL4GW,Partner,www.frenzelit.com,
49.5960879,11.1210915,,[Friedrich-Alexander-Universität Erlangen-Nürnberg](https://www.fau.de/),Friedrich-Alexander-Universität Erlangen-Nürnberg,https://www.fau.de/,Egerlandstr. 1,91058,Erlangen,Bayern,Wissenschaft,"DERIEL, PrometH2eus",Partner,www.fau.de,
48.9502631,9.1383314,,[FUMATECH BWT GmbH](https://www.fumatech.com/),FUMATECH BWT GmbH,https://www.fumatech.com/,Carl-Benz-Str. 4,74321,Bietigheim-Bissingen,Baden-Württemberg,Wirtschaft,"StacIE, Fluorfreie MEA, SEGIWA",Partner,www.fumatech.com,
48.4248151,10.8778564,,[H-TEC SYSTEMS GmbH](https://www.h-tec.com/),H-TEC SYSTEMS GmbH,https://www.h-tec.com/,Am Mittleren Moos 46,86167,Augsburg,Bayern,Wirtschaft,PEP.IN,Partner,www.h-tec.com,
53.7371069,14.0458887,,[HAFF-Dichtungen GmbH](https://www.haff-dichtungen.de/),HAFF-Dichtungen GmbH,https://www.haff-dichtungen.de/,Ziegeleistr. 3,17373,Ueckermünde,Mecklenburg-Vorpommern,Wirtschaft,AEL4GW,Partner,www.haff-dichtungen.de,
47.9118288,7.7033313,,[Hahn-Schickard-Gesellschaft für angewandte Forschung e. V.](https://www.hahn-schickard.de/),Hahn-Schickard-Gesellschaft für angewandte Forschung e. V.,https://www.hahn-schickard.de/,Georges-Köhler-Allee 103,79110,Freiburg im Breisgau,Baden-Württemberg,Wissenschaft,"Fluorfreie MEA, SEGIWA",Koordinator,www.hahn-schickard.de,
51.1297475,13.8392137,,[Helmholtz-Zentrum Dresden - Rossendorf e. V.](https://www.hzdr.de/),Helmholtz-Zentrum Dresden - Rossendorf e. V.,https://www.hzdr.de/,Bautzner Landstr. 400,01328,Dresden,Sachsen,Wissenschaft,SINEWAVE,Partner,www.hzdr.de,
50.8974968,13.2539626,,[Helmholtz-Zentrum Dresden - Rossendorf e. V.](https://www.hzdr.de/),Helmholtz-Zentrum Dresden - Rossendorf e. V.,https://www.hzdr.de/,Chemnitzer Str. 40,09599,Freiberg,Sachsen,Wissenschaft,ReNaRe,Partner,www.hzdr.de,
53.5692303,10.1007321,,[Helmut-Schmidt-Universität](https://www.hsu-hh.de/),Helmut-Schmidt-Universität,https://www.hsu-hh.de/,Holstenhofweg 85,22043,Hamburg,Hamburg,Wissenschaft,eModule,Koordinator,www.hsu-hh.de,
50.1799501,8.9230068,,[Heraeus Deutschland GmbH & Co. KG](https://www.heraeus.com/),Heraeus Deutschland GmbH & Co. KG,https://www.heraeus.com/,Heraeusstr. 12-14,63450,Hanau,Hessen,Wirtschaft,"StacIE, ReNaRe, SEGIWA, DERIEL",Partner,www.heraeus.com,
47.659216,9.1750718,,[Hexis GmbH](https://www.hexis.com/),Hexis GmbH,https://www.hexis.com/,Schulthaißstr. 15,78462,Konstanz,Baden-Württemberg,Wirtschaft,ReNaRe,Partner,www.hexis.com,
50.7752776,7.1895507,,[Hochschule Bonn-Rhein-Sieg](https://www.h-brs.de/),Hochschule Bonn-Rhein-Sieg,https://www.h-brs.de/,Grantham-Allee 20,53757,Sankt Augustin,Nordrhein-Westfalen,Wissenschaft,HyLeiT,Partner,www.h-brs.de,
51.5017981,6.547923,,[Hochschule Rhein-Waal](https://www.hochschule-rhein-waal.de/),Hochschule Rhein-Waal,https://www.hochschule-rhein-waal.de/,Friedrich-Heinrich-Allee 25,47475,Kamp-Lintfort,Nordrhein-Westfalen,Wissenschaft,StaR,Partner,www.hochschule-rhein-waal.de,
53.6615506,9.7968682,,Hoedtke GmbH & Co. KG,Hoedtke GmbH & Co. KG,https://hoedtke.de/,Industriestr. 2-6,25421,Pinneberg,Schleswig-Holstein,Wirtschaft,INSTALL-AWE,Partner,hoedtke.de,
53.8909832,11.4647932,,[Hoeller Electrolyzer GmbH](https://www.hoeller-electrolyzer.com/),Hoeller Electrolyzer GmbH,https://www.hoeller-electrolyzer.com/,Alter Holzhafen 17 b,23966,Wismar,Mecklenburg-Vorpommern,Wirtschaft,HyPLANT100,Partner,www.hoeller-electrolyzer.com,
54.2344231,9.0895911,,[HYPION GmbH](https://www.hypion.eu/),HYPION GmbH,https://www.hypion.eu/,Hamburger Hof 3,25746,Heide,Schleswig-Holstein,Wirtschaft,HyPLANT100,Partner,www.hypion.eu,
51.2831254,7.7830374,,[IBG Automation GmbH](https://www.goeke-group.com/),IBG Automation GmbH,https://www.goeke-group.com/,Osemundstr. 14-22,58809,Neuenrade,Nordrhein-Westfalen,Wirtschaft,FertiRob,Partner,www.goeke-group.com,
53.9119196,10.8023569,,[IBG Technology Hansestadt Lübeck GmbH](https://www.goeke-group.com/),IBG Technology Hansestadt Lübeck GmbH,https://www.goeke-group.com/,An der Dänischburg 25,23569,Lübeck,Schleswig-Holstein,Wirtschaft,HyPLANT100,Partner,www.goeke-group.com,
48.0769935,11.6615136,,[Infineon Technologies AG F OP RD FO](https://www.infineon.com/),Infineon Technologies AG F OP RD FO,https://www.infineon.com/,Am Campeon 1-15,85579,Neubiberg,Bayern,Wirtschaft,HyLeiT,Partner,www.infineon.com,
52.4386105,13.2391057,,[inpro Innovationsgesellschaft für fortgeschrittene Produktionssysteme in der Fahrzeugindustrie mbH](https://www.inpro.de/),inpro Innovationsgesellschaft für fortgeschrittene Produktionssysteme in der Fahrzeugindustrie mbH,https://www.inpro.de/,Steinplatz 2,10623,Berlin,Berlin,Wirtschaft,FertiRob,Partner,www.inpro.de,
49.8309887,8.745123,,[ISRA VISION AG](https://www.isravision.com/),ISRA VISION AG,https://www.isravision.com/,Industriestr. 14,64297,Darmstadt,Hessen,Wirtschaft,FertiRob,Partner,www.isravision.com,
50.9797836,14.1111221,,[ITM Linde Electrolysis GmbH und Linde GmbH](https://www.linde.com/),ITM Linde Electrolysis GmbH und Linde GmbH,https://www.linde.com/,Bodenbacher Str. 80,01277,Dresden,Sachsen,Wirtschaft,SINEWAVE,Partner,www.linde.com,
50.4696168,8.9171014,,ITM Power Service GmbH,ITM Power Service GmbH,https://itm-power.com/,Am Mühlgraben 6,35410,Hungen,Hessen,Wirtschaft,SINEWAVE,Partner,itm-power.com,
48.4442267,8.5134354,,[J.Schmalz GmbH](https://www.schmalz.com/),J.Schmalz GmbH,https://www.schmalz.com/,Johannes-Schmalz-Str. 1,72293,Glatten,Baden-Württemberg,Wirtschaft,FertiRob,Partner,www.schmalz.com,
48.9397149,8.40427,,[Karlsruher Institut für Technologie (KIT)](https://www.kit.edu/),Karlsruher Institut für Technologie (KIT),https://www.kit.edu/,Adenauerring 20 b,76131,Karlsruhe,Baden-Württemberg,Wissenschaft,"FertiRob, HTEL-Stacks, ReNaRe, StacIE",Partner,www.kit.edu,
50.5544687,6.2407954,,[KCS Europe GmbH](https://www.kcs-europe.com/),KCS Europe GmbH,https://www.kcs-europe.com/,Am Handwerkerzentrum 6,52156,Monschau,Nordrhein-Westfalen,Wirtschaft,"AlFaKat, StacIE",Partner,www.kcs-europe.com,
48.0001038,11.3508972,,[keep it green gmbh](https://www.keep-it-green.de/),keep it green gmbh,https://www.keep-it-green.de/,Münchner Str. 19 a,82319,Starnberg,Bayern,Wirtschaft,TP Elektrolyse,Partner,www.keep-it-green.de,
49.7531092,11.8294634,,[KERAFOL Keramische Folien GmbH & Co. KG](https://www.kerafol.com/),KERAFOL Keramische Folien GmbH & Co. KG,https://www.kerafol.com/,Koppe-Platz 1,92676,Eschenbach i.d.OPf.,Bayern,Wirtschaft,HTEL-Stacks,Partner,www.kerafol.com,
50.8502095,13.7766767,,[Kontron AIS GmbH](https://www.ais-automation.com/),Kontron AIS GmbH,https://www.ais-automation.com/,Otto-Mohr-Str. 6,01279,Dresden,Sachsen,Wirtschaft,HTEL-Module,Partner,www.ais-automation.com,
52.3744779,9.7385532,,[Leibniz Universität Hannover](https://www.uni-hannover.de/),Leibniz Universität Hannover,https://www.uni-hannover.de/,Appelstr. 9 a,30167,Hannover,Niedersachsen,Wissenschaft,"HyThroughGen, SEGIWA, DERIEL",Partner,www.uni-hannover.de,
54.0924445,12.1286127,,[Leibniz-Institut für Katalyse e.V.](https://www.catalysis.de/),Leibniz-Institut für Katalyse e.V.,https://www.catalysis.de/,Albert-Einstein-Str. 29 a,18059,Rostock,Mecklenburg-Vorpommern,Wissenschaft,"IREKA, SEGIWA",Koordinator,www.catalysis.de,
49.088332,8.4003114,,[let's dev GmbH & Co. KG](https://www.letsdev.de/),let's dev GmbH & Co. KG,https://www.letsdev.de/,Alter Schlachthof 33,76131,Karlsruhe,Baden-Württemberg,Wirtschaft,FertiRob,Partner,www.letsdev.de,
48.0556122,11.5217455,,[Linde Aktiengesellschaft - Engineering](https://www.linde.com/),Linde Aktiengesellschaft - Engineering,https://www.linde.com/,Dr.-Carl-von-Linde-Str. 6-14,82049,Pullach i. Isartal,Bayern,Wirtschaft,"IntegrH2ate, SINEWAVE",Koordinator,www.linde.com,
49.9207462,9.0755904,,[Main-Automation GmbH](https://www.main-automation.de/),Main-Automation GmbH,https://www.main-automation.de/,Nordring 12,63762,Großostheim,Bayern,Wirtschaft,SEGIWA,Partner,www.main-automation.de,
48.3668041,10.8986971,,[MAN Energy Solutions SE](https://www.man-es.com/),MAN Energy Solutions SE,https://www.man-es.com/,Stadtbachstr. 1,86153,Augsburg,Bayern,Wirtschaft,PEP.IN,Koordinator,www.man-es.com,
51.3783643,6.9228639,,[Max-Planck-Institut für Chemische Energiekonversion](https://www.mpg.de/),Max-Planck-Institut für Chemische Energiekonversion,https://www.mpg.de/,Stiftstr. 34-36,45470,Mülheim an der Ruhr,Nordrhein-Westfalen,Wissenschaft,"DERIEL, PrometH2eus",Partner,www.mpg.de,
51.2501274,13.7625142,,[Max-Planck-Institut für chemische Physik fester Stoffe](https://www.mpg.de/),Max-Planck-Institut für chemische Physik fester Stoffe,https://www.mpg.de/,Nöthnitzer Str. 40,01187,Dresden,Sachsen,Wissenschaft,PrometH2eus,Partner,www.mpg.de,
51.2254018,6.7763137,,[Max-Planck-Institut für Eisenforschung GmbH](https://www.mpie.de/),Max-Planck-Institut für Eisenforschung GmbH,https://www.mpie.de/,Max-Planck-Str. 1,40237,Düsseldorf,Nordrhein-Westfalen,Wissenschaft,PrometH2eus,Partner,www.mpie.de,
51.32658,6.9710401,,[Max-Planck-Institut für Kohlenforschung](https://www.kofo.mpg.de/),Max-Planck-Institut für Kohlenforschung,https://www.kofo.mpg.de/,Kaiser-Wilhelm-Platz 1,45470,Mülheim an der Ruhr,Nordrhein-Westfalen,Wissenschaft,PrometH2eus,Partner,www.kofo.mpg.de,
54.36157,10.2862344,,[meteolytix GmbH](https://www.meteolytix.de/),meteolytix GmbH,https://www.meteolytix.de/,Schauenburgerstr. 116,24118,Kiel,Schleswig-Holstein,Wirtschaft,SYSTOGEN100,Partner,www.meteolytix.de,
50.791896829224655,13.016466069564247,,[imk Industrial Intelligence GmbH](https://www.imk-automotive.de),imk Industrial Intelligence GmbH,https://www.imk-automotive.de,Amselgrund 30,09128,Chemnitz,Sachsen,Wirtschaft,"HTEL-Module, AEL4GW",Partner,www.imk-automotive.de,
53.1389753,8.2146017,,[OFFIS e. V.](https://www.offis.de/),OFFIS e. V.,https://www.offis.de/,Escherweg 2,26121,Oldenburg,Niedersachsen,Wissenschaft,"DERIEL, SEGIWA",Partner,www.offis.de,
49.0195333,12.0974869,,[Ostbayerische Technische Hochschule Regensburg - Fakultät Maschinenbau](https://www.oth-regensburg.de/),Ostbayerische Technische Hochschule Regensburg - Fakultät Maschinenbau,https://www.oth-regensburg.de/,Galgenbergstr. 30,93053,Regensburg,Bayern,Wissenschaft,StaR,Partner,www.oth-regensburg.de,
50.7148979,6.1676665,,[Rheinisch-Westfälische Technische Hochschule Aachen](https://www.rwth-aachen.de/),Rheinisch-Westfälische Technische Hochschule Aachen,https://www.rwth-aachen.de/,Forckenbeckstr. 51,52074,Aachen,Nordrhein-Westfalen,Wissenschaft,"AlFaKat, DERIEL, SEGIWA, StaR, INSTALL-AWE, StacIE, PrometH2eus, ReNaRe",Partner,www.rwth-aachen.de,
51.445525,7.5674652,,[RIF Institut für Forschung und Transfer e. V.](https://www.rif-ev.de/),RIF Institut für Forschung und Transfer e. V.,https://www.rif-ev.de/,Joseph-von-Fraunhofer-Str. 20,44227,Dortmund,Nordrhein-Westfalen,Wissenschaft,FertiRob,Partner,www.rif-ev.de,
48.7983947,9.0624386,,[Robert Bosch GmbH BMC/INS](https://www.bosch.com/),Robert Bosch GmbH BMC/INS,https://www.bosch.com/,Robert-Bosch-Platz 1,70839,Gerlingen,Baden-Württemberg,Wirtschaft,FertiRob,Partner,www.bosch.com,
51.4818111,7.2196635,,[Ruhr-Universität Bochum](https://www.ruhr-uni-bochum.de/),Ruhr-Universität Bochum,https://www.ruhr-uni-bochum.de/,Universitätsstr. 150,44801,Bochum,Nordrhein-Westfalen,Wissenschaft,"FertiRob, DERIEL, HyPLANT100",Koordinator und Partner,www.ruhr-uni-bochum.de,
49.5710376,10.8815262,,[Schaeffler Technologies AG & Co. KG](https://www.schaeffler.com/),Schaeffler Technologies AG & Co. KG,https://www.schaeffler.com/,Industriestr. 1-3,91074,Herzogenaurach,Bayern,Wirtschaft,StacIE,Partner,www.schaeffler.com,
49.6277003,11.0143385,,[Siemens Energy Global GmbH & Co. KG - Abt. SE NEB TP](https://www.siemens-energy.com/),Siemens Energy Global GmbH & Co. KG - Abt. SE NEB TP,https://www.siemens-energy.com/,Freyeslebenstr. 1,91058,Erlangen,Bayern,Wirtschaft,"SEGIWA, DERIEL",Koordinator,www.siemens-energy.com,
51.3138991,9.5575189,,[SMA Solar Technology AG](https://www.sma.de/),SMA Solar Technology AG,https://www.sma.de/,Sonnenallee 1,34266,Niestetal,Hessen,Wirtschaft,HyLeiT,Partner,www.sma.de,
51.016265,13.6530329,,[SunFire GmbH](https://www.sunfire.de/),SunFire GmbH,https://www.sunfire.de/,Gasanstaltstr. 2,01237,Dresden,Sachsen,Wirtschaft,"AEL4GW, HTEL-Module, HTEL-Stacks",Koordinator,www.sunfire.de,
54.4375322,10.1742064,,Tachycon GmbH,Tachycon GmbH,https://www.tachycon.de,Hofholzallee 63,24109,Kiel,Schleswig-Holstein,Wirtschaft,SYSTOGEN100,Partner,www.tachycon.de,
54.1948456,9.0929015,,[TC-Hydraulik GmbH](https://www.tc-hydraulik.de/),TC-Hydraulik GmbH,https://www.tc-hydraulik.de/,Rüsdorfer Str. 8,25746,Heide,Schleswig-Holstein,Wirtschaft,HyPLANT100,Partner,www.tc-hydraulik.de,
50.8684545,6.0950514,,[TEC4FUELS GmbH](https://https://www.tec4fuels.com/),TEC4FUELS GmbH,https://www.tec4fuels.com/,Kaiserstr. 100,52134,Herzogenrath,Nordrhein-Westfalen,Wirtschaft,FluCoM,Koordinator,www.tec4fuels.com,
50.8714928,13.3980846,,[Technische Universität Bergakademie Freiberg](https://www.tu-freiberg.de/),Technische Universität Bergakademie Freiberg,https://www.tu-freiberg.de/,Lampadiusstr. 4,09599,Freiberg,Sachsen,Wissenschaft,"ReNaRe, HTEL-Module",Koordinator und Partner,www.tu-freiberg.de,
52.4164926,13.3732228,,[Technische Universität Berlin](https://www.tu.berlin/),Technische Universität Berlin,https://www.tu.berlin/,Straße des 17. Juni 135,10623,Berlin,Berlin,Wissenschaft,"HyThroughGen, PrometH2eus",Partner,www.tu.berlin,
52.2646577,10.5236066,,[Technische Universität Carolo-Wilhelmina zu Braunschweig](https://www.tu-braunschweig.de/),Technische Universität Carolo-Wilhelmina zu Braunschweig,https://www.tu-braunschweig.de/,Langer Kamp 19 B,38106,Braunschweig,Niedersachsen,Wissenschaft,INSTALL-AWE,Partner,www.tu-braunschweig.de,
51.8802577,10.5642634,,[Technische Universität Clausthal](https://www.tu-clausthal.de/),Technische Universität Clausthal,https://www.tu-clausthal.de/,Am Stollen 19A,38640,Goslar,Niedersachsen,Wissenschaft,StaR,Partner,www.tu-clausthal.de,
49.8615899,8.5762043,,[Technische Universität Darmstadt](https://www.tu-darmstadt.de/),Technische Universität Darmstadt,https://www.tu-darmstadt.de/,Alarich-Weiss-Str. 8,64287,Darmstadt,Hessen,Wissenschaft,PrometH2eus,Partner,www.tu-darmstadt.de,
51.0493286,13.7381437,,[Technische Universität Dresden](https://www.tu-dresden.de/),Technische Universität Dresden,https://www.tu-dresden.de/,Helmholtzstr. 18,01307,Dresden,Sachsen,Wissenschaft,"eModule, HyLeiT, SINEWAVE",Partner,www.tu-dresden.de,
53.550341,10.000654,,[Technische Universität Hamburg](https://www.tuhh.de/),Technische Universität Hamburg,https://www.tuhh.de/,Denickestr. 17,21073,Hamburg,Hamburg,Wissenschaft,HyPLANT100,Partner,www.tuhh.de,
50.6867695,10.9142385,,[Technische Universität Ilmenau](https://www.tu-ilmenau.de/),Technische Universität Ilmenau,https://www.tu-ilmenau.de/,Gustav-Kirchhoff-Str. 6,98693,Ilmenau,Thüringen,Wissenschaft,StacIE,Partner,www.tu-ilmenau.de,
48.2513878,11.6509662,,[Technische Universität München](https://www.tum.de/),Technische Universität München,https://www.tum.de/,Boltzmannstr. 15,85748,Garching b. München,Bayern,Wissenschaft,SINEWAVE,Partner,www.tum.de,
48.8819801,12.569716,,[Technische Universität München](https://www.tum.de/),Technische Universität München,https://www.tum.de/,Am Essigberg 3,94315,Straubing,Bayern,Wissenschaft,ReNaRe,Partner,www.tum.de,
51.5142273,7.4652789,,[thyssenkrupp nucera AG & Co. KGaA](https://www.thyssenkrupp-uhde-chlorine-engineers.com/),thyssenkrupp nucera AG & Co. KGaA,https://thyssenkrupp-nucera.com,Voßkuhle 38,44141,Dortmund,Nordrhein-Westfalen,Wirtschaft,"INSTALL-AWE, PrometH2eus",Koordinator und Partner,https://thyssenkrupp-nucera.com,
50.938361,6.959974,,[TÜV Rheinland Industrie Service GmbH](https://www.tuv.com/),TÜV Rheinland Industrie Service GmbH,https://www.tuv.com/,Am Grauen Stein,51105,Köln,Nordrhein-Westfalen,Wirtschaft,TP Elektrolyse,Partner,www.tuv.com,
50.1335542,8.9168179,,[Umicore AG & Co. KG](https://www.umicore.de/),Umicore AG & Co. KG,https://www.umicore.de/,Rodenbacher Chaussee 4,63457,Hanau,Hessen,Wirtschaft,PrometH2eus,Partner,www.umicore.de,
49.9427202,11.5763079,,[Universität Bayreuth](https://www.uni-bayreuth.de/),Universität Bayreuth,https://www.uni-bayreuth.de/,Universitätsstr. 30,95447,Bayreuth,Bayern,Wissenschaft,HTEL-Stacks,Partner,www.uni-bayreuth.de,
51.2641433,6.5446958,,[Universität Duisburg-Essen](https://www.uni-due.de/),Universität Duisburg-Essen,https://www.uni-due.de/,Carl-Benz-Str. 199,47057,Duisburg,Nordrhein-Westfalen,Wissenschaft,PrometH2eus,Partner,www.uni-due.de,
48.8577633,10.3523096,,"[VAF Gesellschaft für Verkettungsanlagen, Automationseinrichtungen und Fördertechnik mbH](https://www.vaf-sondermaschinen.de/)","VAF Gesellschaft für Verkettungsanlagen, Automationseinrichtungen und Fördertechnik mbH",https://www.vaf-sondermaschinen.de/,Bergstr. 13,73441,Bopfingen,Baden-Württemberg,Wirtschaft,PEP.IN,Partner,www.vaf-sondermaschinen.de,
50.1106444,8.6820917,,[Verband Deutscher Maschinen- und Anlagenbau e.V. (VDMA)](https://www.vdma.org/),Verband Deutscher Maschinen- und Anlagenbau e.V. (VDMA),https://www.vdma.org/,Lyoner Str. 18,60528,Frankfurt am Main,Hessen,Wirtschaft,eModule,Partner,www.vdma.org,
51.6142482,7.5228088,,[WEW GmbH](https://www.wewhydrogen.com/),WEW GmbH,https://www.wewhydrogen.com/,Konrad-Adenauer-Allee 11,44263,Dortmund,Nordrhein-Westfalen,Wirtschaft,StaR,Koordinator,www.wewhydrogen.com,
50.9631279,13.6418236,,[XENON Automatisierungstechnik GmbH](https://www.xenon-automation.com/),XENON Automatisierungstechnik GmbH,https://www.xenon-automation.com/,Pforzheimer Str. 16,01189,Dresden,Sachsen,Wirtschaft,"HTEL-Module, HTEL-Stacks",Partner,www.xenon-automation.com,
51.3331205,6.5623343,,[Zentrum für Brennstoffzellen-Technik GmbH](https://www.zbt.de/),Zentrum für Brennstoffzellen-Technik GmbH,https://www.zbt.de/,Carl-Benz-Str. 201,47057,Duisburg,Nordrhein-Westfalen,Wissenschaft,"AlFaKat, Degrad-EL3, PEP.IN",Koordinator und Partner,www.zbt.de,
49.872775,8.651177,,[Öko-Institut. Institut für angewandte Ökologie e.V.](https://www.oeko.de/),Öko-Institut. Institut für angewandte Ökologie e.V.,https://www.oeko.de/,Rheinstr. 95,64295,Darmstadt,Hessen,Wissenschaft,ReNaRe,Partner,www.oeko.de,
51.0971736,13.6923622,,[Semodia GmbH](https://www.semodia.com),Semodia GmbH,https://www.semodia.com,Meißner Str. 37,01445,Radebeul,Sachsen,Wirtschaft,eModule,Partner,www.semodia.com,
52.1949107,11.5985197,,[Semodia GmbH](https://www.semodia.com),Semodia GmbH,https://www.semodia.com,Meißner Str. 37,01445,Radebeul,Sachsen,Wirtschaft,eModule,Partner,www.semodia.com,
51.3608112,6.4335441,,[Semodia GmbH](https://www.semodia.com),Semodia GmbH,https://www.semodia.com,Meißner Str. 37,01445,Radebeul,Sachsen,Wirtschaft,eModule,Partner,www.semodia.com,